,Name,Address,lat,lng
0,Admiralty Primary School,Singapore Admiralty Primary School,1.4430452,103.8003087
1,Ahmad Ibrahim Primary School,Singapore Ahmad Ibrahim Primary School,1.4337349,103.8327825
2,Ai Tong School,Singapore Ai Tong School,1.3603066,103.8327064
3,Alexandra Primary School,Singapore Alexandra Primary School,1.2912575,103.8237639
4,Anchor Green Primary School,Singapore Anchor Green Primary School,1.3908643,103.8871175
5,Anderson Primary School,Singapore Anderson Primary School,1.3840294,103.841368
6,Anglo-Chinese School (Junior),Singapore Anglo-Chinese School (Junior),1.3090345,103.8416385
7,Anglo-Chinese School (Primary),Singapore Anglo-Chinese School (Primary),1.3187553,103.8358329
8,Angsana Primary School,Singapore Angsana Primary School,1.3629158,103.9389145
9,Ang Mo Kio Primary School,Singapore Ang Mo Kio Primary School,1.3693482,103.8398126
10,Beacon Primary School,Singapore Beacon Primary School,1.3839141,103.7736916
11,Bedok Green Primary School,Singapore Bedok Green Primary School,1.3242773,103.9375185
12,Blangah Rise Primary School,Singapore Blangah Rise Primary School,1.2763839,103.8093302
13,Boon Lay Garden Primary School,Singapore Boon Lay Garden Primary School,1.3434436,103.712979
14,Bukit Panjang Primary School,Singapore Bukit Panjang Primary School,1.3735964,103.7695266
15,Bukit Timah Primary School,Singapore Bukit Timah Primary School,1.3373854,103.7667618
16,Bukit View Primary School,Singapore Bukit View Primary School,1.3461955,103.7537972
17,Canberra Primary School,Singapore Canberra Primary School,1.4505141,103.8156974
18,Canossa Catholic Primary School,Singapore Canossa Catholic Primary School,1.3262861,103.8817743
19,Cantonment Primary School,Singapore Cantonment Primary School,1.2754926,103.8399129
20,Catholic High School (Primary),Singapore Catholic High School (Primary),1.3546049,103.8451234
21,Changkat Primary School,Singapore Changkat Primary School,1.3405718,103.9519323
22,CHIJ (Katong) Primary,Singapore CHIJ (Katong) Primary,1.3064102,103.9109552
23,CHIJ (Kellock),Singapore CHIJ (Kellock),1.2750626,103.8283114
24,CHIJ Our Lady of Good Counsel,Singapore CHIJ Our Lady of Good Counsel,1.3574239,103.8637879
25,CHIJ Our Lady of the Nativity,Singapore CHIJ Our Lady of the Nativity,1.3735318,103.897543
26,CHIJ Our Lady Queen of Peace,Singapore CHIJ Our Lady Queen of Peace,1.3667455,103.7674463
27,CHIJ Primary (Toa Payoh),Singapore CHIJ Primary (Toa Payoh),1.3333971,103.8425739
28,CHIJ St. Nicholas Girls' School,Singapore CHIJ St. Nicholas Girls' School,1.3740005,103.8341542
29,Chongfu School,Singapore Chongfu School,1.4387232,103.8393414
30,Chongzheng Primary School,Singapore Chongzheng Primary School,1.3508639,103.9512472
31,Chua Chu Kang Primary School,Singapore Chua Chu Kang Primary School,1.3778193,103.7423121
32,Clementi Primary School,Singapore Clementi Primary School,1.3153018,103.7632831
33,Compassvale Primary School,Singapore Compassvale Primary School,1.3949689,103.8981185
34,Concord Primary School,Singapore Concord Primary School,1.380347,103.7363383
35,Corporation Primary School,Singapore Corporation Primary School,1.3514322,103.7076403
36,Damai Primary School,Singapore Damai Primary School,1.3356727,103.9211476
37,Dazhong Primary School,Singapore Dazhong Primary School,1.35922,103.7479191
38,De La Salle School,Singapore De La Salle School,1.3950704,103.7433723
39,East Spring Primary School,Singapore East Spring Primary School,1.3529446,103.9618398
40,Edgefield Primary School,Singapore Edgefield Primary School,1.4004367,103.9076926
41,Elias Park Primary School,Singapore Elias Park Primary School,1.3749538,103.9452385
42,Endeavour Primary School,Singapore Endeavour Primary School,1.4545646,103.8171781
43,Eunos Primary School,Singapore Eunos Primary School,1.3245231,103.9043036
44,Evergreen Primary School,Singapore Evergreen Primary School,1.444082,103.795038
45,Fairfield Methodist School (Primary),Singapore Fairfield Methodist School (Primary),1.3005232,103.7848864
46,Farrer Park Primary School,Singapore Farrer Park Primary School,1.312316,103.850874
47,Fengshan Primary School,Singapore Fengshan Primary School,1.3296339,103.9319374
48,Fernvale Primary School,Singapore Fernvale Primary School,1.3900135,103.8741806
49,First Toa Payoh Primary School,Singapore First Toa Payoh Primary School,1.3402883,103.8555874
50,Frontier Primary School,Singapore Frontier Primary School,1.336807,103.6994043
51,Fuchun Primary School,Singapore Fuchun Primary School,1.4304356,103.7781651
52,Fuhua Primary School,Singapore Fuhua Primary School,1.3363949,103.7368184
53,Gan Eng Seng Primary School,Singapore Gan Eng Seng Primary School,1.2857731,103.8151962
54,Geylang Methodist School (Primary),Singapore Geylang Methodist School (Primary),1.3182162,103.8838381
55,Gongshang Primary School,Singapore Gongshang Primary School,1.3571755,103.9491666
56,Greendale Primary School,Singapore Greendale Primary School,1.3962652,103.9127224
57,Greenridge Primary School,Singapore Greenridge Primary School,1.3856591,103.7679301
58,Greenwood Primary School,Singapore Greenwood Primary School,1.43985,103.804609
59,Guangyang Primary School,Singapore Guangyang Primary School,1.345887,103.849315
60,Haig Girls' School,Singapore Haig Girls' School,1.3120003,103.9026307
61,Holy Innocents' Primary School,Singapore Holy Innocents' Primary School,1.3666609,103.8936553
62,Henry Park Primary School,Singapore Henry Park Primary School,1.3167825,103.7841363
63,Hong Wen School,Singapore Hong Wen School,1.3216992,103.8575256
64,Horizon Primary School,Singapore Horizon Primary School,1.3998175,103.9131302
65,Hougang Primary School,Singapore Hougang Primary School,1.3781206,103.8812046
66,Huamin Primary School,Singapore Huamin Primary School,1.427311,103.8443612
67,Innova Primary School,Singapore Innova Primary School,1.4293039,103.790427
68,Jiemin Primary School,Singapore Jiemin Primary School,1.427671,103.830498
69,Junyuan Primary School,Singapore Junyuan Primary School,1.3479731,103.9399917
70,Jurong Primary School,Singapore Jurong Primary School,1.348679,103.732992
71,Jurong West Primary School,Singapore Jurong West Primary School,1.3390525,103.6988511
72,Juying Primary School,Singapore Juying Primary School,1.3392826,103.687185
73,Keming Primary School,Singapore Keming Primary School,1.3453287,103.7563823
74,Kheng Cheng School,Singapore Kheng Cheng School,1.3376497,103.8477955
75,Kong Hwa School,Singapore Kong Hwa School,1.311089,103.8881773
76,Kranji Primary School,Singapore Kranji Primary School,1.3936035,103.747804
77,Kuo Chuan Presbyterian Primary School,Singapore Kuo Chuan Presbyterian Primary School,1.3494052,103.8552635
78,Lakeside Primary School,Singapore Lakeside Primary School,1.3384657,103.7181475
79,Lianhua Primary School,Singapore Lianhua Primary School,1.3536176,103.7544359
80,Maha Bodhi School,Singapore Maha Bodhi School,1.3284131,103.9015463
81,Maris Stella High School,Singapore Maris Stella High School,1.3411414,103.8776654
82,Marsiling Primary School,Singapore Marsiling Primary School,1.4338104,103.7736593
83,Marymount Convent School,Singapore Marymount Convent School,1.3406106,103.8400154
84,Mayflower Primary School,Singapore Mayflower Primary School,1.3762361,103.8357776
85,Mee Toh School,Singapore Mee Toh School,1.3947729,103.9089333
86,Meridian Primary School,Singapore Meridian Primary School,1.376032,103.9350488
87,Methodist Girls' School (Primary),Singapore Methodist Girls' School (Primary),1.3329949,103.783453
88,Montfort Junior School,Singapore Montfort Junior School,1.3739459,103.8894782
89,Nan Chiau Primary School,Singapore Nan Chiau Primary School,1.3925508,103.8904013
90,Nan Hua Primary School,Singapore Nan Hua Primary School,1.3197989,103.7619428
91,Nanyang Primary School,Singapore Nanyang Primary School,1.3210838,103.807711
92,Ngee Ann Primary School,Singapore Ngee Ann Primary School,1.3056219,103.9180054
93,Naval Base Primary School,Singapore Naval Base Primary School,1.4160913,103.8389168
94,New Town Primary School,Singapore New Town Primary School,1.2999918,103.8000744
95,Northland Primary School,Singapore Northland Primary School,1.421155,103.840576
96,Northoaks Primary School,Singapore Northoaks Primary School,1.4569403,103.8137084
97,North Spring Primary School,Singapore North Spring Primary School,1.3872397,103.9036058
98,North View Primary School,Singapore North View Primary School,1.427616,103.848313
99,North Vista Primary School,Singapore North Vista Primary School,1.3829142,103.8958131
100,Oasis Primary School,Singapore Oasis Primary School,1.4047715,103.9109669
101,Opera Estate Primary School,Singapore Opera Estate Primary School,1.3193914,103.9235753
102,Palm View Primary School,Singapore Palm View Primary School,1.3841217,103.890795
103,Park View Primary School,Singapore Park View Primary School,1.3775806,103.9395361
104,Pasir Ris Primary School,Singapore Pasir Ris Primary School,1.372403,103.9629666
105,Paya Lebar Methodist Girls' School (Primary),Singapore Paya Lebar Methodist Girls' School (Primary),1.3504619,103.8852195
106,Pei Chun Public School,Singapore Pei Chun Public School,1.3371187,103.8558037
107,Pei Hwa Presbyterian Primary School,Singapore Pei Hwa Presbyterian Primary School,1.338081,103.77613
108,Pei Tong Primary School,Singapore Pei Tong Primary School,1.3161197,103.7675906
109,Peiying Primary School,Singapore Peiying Primary School,1.4175241,103.8302678
110,Pioneer Primary School,Singapore Pioneer Primary School,1.33837,103.688061
111,Poi Ching School,Singapore Poi Ching School,1.3579299,103.9356567
112,Princess Elizabeth Primary School,Singapore Princess Elizabeth Primary School,1.3494947,103.7410015
113,Punggol Cove Primary School,Singapore Punggol Cove Primary School,1.4116904,103.89861
114,Punggol Green Primary School,Singapore Punggol Green Primary School,1.4019222,103.8988272
115,Punggol Primary School,Singapore Punggol Primary School,1.3770245,103.8946292
116,Punggol View Primary School,Singapore Punggol View Primary School,1.4052725,103.905183
117,Qifa Primary School,Singapore Qifa Primary School,1.3128971,103.7569168
118,Qihua Primary School,Singapore Qihua Primary School,1.4421018,103.7884731
119,Queenstown Primary School,Singapore Queenstown Primary School,1.2962213,103.8079624
120,Radin Mas Primary School,Singapore Radin Mas Primary School,1.2750693,103.8238799
121,Raffles Girls' Primary School,Singapore Raffles Girls' Primary School,1.3299574,103.8062236
122,Red Swastika School,Singapore Red Swastika School,1.3331408,103.9341987
123,Riverside Primary School,Singapore Riverside Primary School,1.4468546,103.8015922
124,River Valley Primary School,Singapore River Valley Primary School,1.2938838,103.8363894
125,Rivervale Primary School,Singapore Rivervale Primary School,1.393196,103.904383
126,Rosyth School,Singapore Rosyth School,1.3729086,103.8746431
127,Rulang Primary School,Singapore Rulang Primary School,1.34694,103.71896
128,Sengkang Green Primary School,Singapore Sengkang Green Primary School,1.3928321,103.8754744
129,Sembawang Primary School,Singapore Sembawang Primary School,1.4454114,103.8209921
130,Si Ling Primary School,Singapore Si Ling Primary School,1.432693,103.78577
131,Seng Kang Primary School,Singapore Seng Kang Primary School,1.3895803,103.8996531
132,Shuqun Primary School,Singapore Shuqun Primary School,1.3475461,103.7215519
133,Singapore Chinese Girls’ School (Primary),Singapore Singapore Chinese Girls’ School (Primary),1.3202303,103.8296851
134,South View Primary School,Singapore South View Primary School,1.381324,103.7471451
135,Springdale Primary School,Singapore Springdale Primary School,1.3949667,103.8896801
136,Stamford Primary School,Singapore Stamford Primary School,1.3040142,103.8570451
137,St. Andrew's Junior School,Singapore St. Andrew's Junior School,1.3309872,103.8652758
138,St. Anthony's Canossian Primary School,Singapore St. Anthony's Canossian Primary School,1.3348478,103.9416621
139,St. Anthony's Primary School,Singapore St. Anthony's Primary School,1.3641887,103.748959
140,St. Gabriel's Primary School,Singapore St. Gabriel's Primary School,1.3496393,103.8623448
141,St. Hilda's Primary School,Singapore St. Hilda's Primary School,1.3496843,103.9361045
142,St. Joseph's Institution Junior,Singapore St. Joseph's Institution Junior,1.3173615,103.8454801
143,St. Margaret's Primary School,Singapore St. Margaret's Primary School,1.3250653,103.8816751
144,St. Stephen's School,Singapore St. Stephen's School,1.3188293,103.9175685
145,Tampines North Primary School,Singapore Tampines North Primary School,1.360298,103.948581
146,Tampines Primary School,Singapore Tampines Primary School,1.3497384,103.9442245
147,Tanjong Katong Primary School,Singapore Tanjong Katong Primary School,1.3053798,103.9003358
148,Tao Nan School,Singapore Tao Nan School,1.3049059,103.911434
149,Teck Ghee Primary School,Singapore Teck Ghee Primary School,1.3654149,103.8506386
150,Teck Whye Primary School,Singapore Teck Whye Primary School,1.3837636,103.7537174
151,Telok Kurau Primary School,Singapore Telok Kurau Primary School,1.3308237,103.911406
152,Temasek Primary School,Singapore Temasek Primary School,1.3175255,103.9455521
153,Townsville Primary School,Singapore Townsville Primary School,1.3601828,103.8541038
154,Unity Primary School,Singapore Unity Primary School,1.403245,103.74729
155,Valour Primary School,Singapore Valour Primary School,1.4065167,103.8995102
156,Waterway Primary School,Singapore Waterway Primary School,1.3990541,103.9184708
157,Wellington Primary School,Singapore Wellington Primary School,1.4521597,103.8224459
158,West Grove Primary School,Singapore West Grove Primary School,1.3445459,103.6989872
159,West Spring Primary School,Singapore West Spring Primary School,1.3896611,103.7665176
160,Westwood Primary School,Singapore Westwood Primary School,1.3472361,103.7004708
161,West View Primary School,Singapore West View Primary School,1.3837275,103.7601419
162,Woodgrove Primary School,Singapore Woodgrove Primary School,1.4334662,103.7905304
163,Woodlands Primary School,Singapore Woodlands Primary School,1.436771,103.791794
164,Woodlands Ring Primary School,Singapore Woodlands Ring Primary School,1.4345519,103.7978994
165,Xinghua Primary School,Singapore Xinghua Primary School,1.357958,103.8901418
166,Xingnan Primary School,Singapore Xingnan Primary School,1.3425489,103.6870917
167,Xinmin Primary School,Singapore Xinmin Primary School,1.371371,103.883074
168,Xishan Primary School,Singapore Xishan Primary School,1.4334915,103.8374838
169,Yangzheng Primary School,Singapore Yangzheng Primary School,1.349218,103.8685545
170,Yew Tee Primary School,Singapore Yew Tee Primary School,1.396978,103.7511849
171,Yio Chu Kang Primary School,Singapore Yio Chu Kang Primary School,1.3779961,103.8855816
172,Yishun Primary School,Singapore Yishun Primary School,1.4334926,103.8338127
173,Yu Neng Primary School,Singapore Yu Neng Primary School,1.3338292,103.9318969
174,Yuhua Primary School,Singapore Yuhua Primary School,1.3429774,103.7409109
175,Yumin Primary School,Singapore Yumin Primary School,1.3516199,103.9511251
176,Zhangde Primary School,Singapore Zhangde Primary School,1.2842268,103.8267059
177,Zhenghua Primary School,Singapore Zhenghua Primary School,1.3796697,103.7692818
178,Zhonghua Primary School,Singapore Zhonghua Primary School,1.3598531,103.8695741
