,Name,Address,lat,lng
0,Telok Ayer Green,Singapore Telok Ayer Green,1.2814153,103.847621
1,Mayflower Crescent Playground,Singapore Mayflower Crescent Playground,1.3727844,103.8396148
2,Sunrise Drive Playground 1,Singapore Sunrise Drive Playground 1,1.3892938,103.8561411
3,Elias Terrace Playground,Singapore Elias Terrace Playground,1.372274,103.9410928
4,Kew Avenue Playground,Singapore Kew Avenue Playground,1.3214713,103.9485142
5,Greenfield Drive Playground,Singapore Greenfield Drive Playground,1.3129682,103.917818
6,Sun Plaza Park,Singapore Sun Plaza Park,1.3591264,103.9439581
7,Changi Point Ferry Terminal,Singapore Changi Point Ferry Terminal,1.3912159,103.9877742
8,Shangri-La Playground,Singapore Shangri-La Playground,1.3710949,103.8322906
9,Opera Estate Football Field,Singapore Opera Estate Football Field,1.320206,103.924456
10,Lentor Vale Playground,Singapore Lentor Vale Playground,1.3880813,103.8362045
11,Limau Villas Playground,Singapore Limau Villas Playground,1.323928,103.950168
12,Paya Lebar Crescent Open Space,Singapore Paya Lebar Crescent Open Space,1.3491386,103.88365
13,Mugliston Park Playground,Singapore Mugliston Park Playground,1.3853093,103.8778534
14,Sungei Api Api Park,Singapore Sungei Api Api Park,1.3790088,103.946467
15,Yio Chu Kang Gardens Playground,Singapore Yio Chu Kang Gardens Playground,1.3803547,103.8376285
16,Tampines Eco Green,Singapore Tampines Eco Green,1.3637756,103.9481856
17,Mimosa Terrace Playground,Singapore Mimosa Terrace Playground,1.3844168,103.8604516
18,Neram Crescent Playground,Singapore Neram Crescent Playground,1.3852907,103.8660049
19,Changi Point Waterfront Park,Singapore Changi Point Waterfront Park,1.3904671,103.9880876
20,Aida Park,Singapore Aida Park,1.3194074,103.9279214
21,Tai Keng Gardens Playground,Singapore Tai Keng Gardens Playground,1.3460691,103.8852195
22,Realty Park,Singapore Realty Park,1.3673034,103.8903706
23,Changi Point Promenade,Singapore Changi Point Promenade,1.3901713,103.9890592
24,Aroozoo Avenue Playground,Singapore Aroozoo Avenue Playground,1.3551438,103.8859444
25,St. Anne's Wood Playground,Singapore St. Anne's Wood Playground,1.3915037,103.9037279
26,Bedok Terrace Playground,Singapore Bedok Terrace Playground,1.3252719,103.9470614
27,Bunga Rampai Park,Singapore Bunga Rampai Park,1.340499,103.8838455
28,Handy Road Open Space,Singapore Handy Road Open Space,1.2989188,103.8477082
29,Kitchener Green Playground,Singapore Kitchener Green Playground,1.3073858,103.8595482
30,Penang Road Open Space,Singapore Penang Road Open Space,1.3002666,103.8411289
31,National Orchid Garden,Singapore National Orchid Garden,1.3157058,103.8161825
32,Eng Kong Garden Playground,Singapore Eng Kong Garden Playground,1.3368238,103.769184
33,Sennett Avenue Open Space,Singapore Sennett Avenue Open Space,1.3188408,103.9393632
34,Interim Park At Lengkong Enam,Singapore Interim Park At Lengkong Enam,1.3276124,103.9147729
35,Pesari Walk Playground,Singapore Pesari Walk Playground,1.324463,103.9540929
36,Changi Heights Playground,Singapore Changi Heights Playground,1.3628393,103.9720425
37,Jalan Senang Playground,Singapore Jalan Senang Playground,1.3289291,103.9157554
38,Telok Kurau Park,Singapore Telok Kurau Park,1.3156005,103.9142934
39,Sunrise Place Playground,Singapore Sunrise Place Playground,1.3869378,103.8566133
40,Seletar Terrace Playground,Singapore Seletar Terrace Playground,1.3816684,103.8690795
41,Upper Peirce Reservoir Park,Singapore Upper Peirce Reservoir Park,1.3723665,103.8084345
42,Tai Hwan Terrace Playground,Singapore Tai Hwan Terrace Playground,1.3564839,103.8604049
43,Woodlands Town Park East,Singapore Woodlands Town Park East,1.4366405,103.7792449
44,Tamarind Road Playground,Singapore Tamarind Road Playground,1.3896177,103.8602587
45,Woodlands Waterfront Park,Singapore Woodlands Waterfront Park,1.4530016,103.7802692
46,Ellington Square Playground,Singapore Ellington Square Playground,1.3717172,103.8342756
47,Thrift Drive Open Space,Singapore Thrift Drive Open Space,1.3438556,103.8832245
48,Cactus Road Playground,Singapore Cactus Road Playground,1.389999,103.8518676
49,Serenade Walk Playground,Singapore Serenade Walk Playground,1.3796649,103.8347063
50,Gelenggang Park,Singapore Gelenggang Park,1.3733329,103.8295995
51,Park Villas Terrace Playground,Singapore Park Villas Terrace Playground,1.3690144,103.8800447
52,Jalan Kemuning Park,Singapore Jalan Kemuning Park,1.439533,103.8269004
53,Sunrise Terrace Open Space,Singapore Sunrise Terrace Open Space,1.3882593,103.8560986
54,Sunrise Close Playground,Singapore Sunrise Close Playground,1.3870104,103.8574343
55,Thomson Walk Playground,Singapore Thomson Walk Playground,1.375873,103.8324279
56,Burgundy Crescent Playground,Singapore Burgundy Crescent Playground,1.3398088,103.7606781
57,Lorong Kemunchup Playground,Singapore Lorong Kemunchup Playground,1.3603536,103.7609761
58,Chestnut Drive Playground,Singapore Chestnut Drive Playground,1.3676668,103.7688301
59,Sunset Way Park,Singapore Sunset Way Park,1.3274681,103.7647612
60,Pavilion Park Playground,Singapore Pavilion Park Playground,1.3695217,103.7519332
61,West Coast Green Playground,Singapore West Coast Green Playground,1.3154137,103.7562696
62,Jalan Dermawan Playground,Singapore Jalan Dermawan Playground,1.3603802,103.7586719
63,one-north Park: Rochester East,Singapore one-north Park: Rochester East,1.3028391,103.7905769
64,Jurong Central Park,Singapore Jurong Central Park,1.3377938,103.7078525
65,Faber Height Open Space,Singapore Faber Height Open Space,1.3224665,103.7574405
66,West Coast Place Playground,Singapore West Coast Place Playground,1.3141477,103.7584414
67,Westville Playground,Singapore Westville Playground,1.3527191,103.7001724
68,Villa Verde Park,Singapore Villa Verde Park,1.3903506,103.7536199
69,Chestnut Close Playground,Singapore Chestnut Close Playground,1.3689057,103.7734011
70,Upper Seletar Reservoir Park,Singapore Upper Seletar Reservoir Park,1.400879,103.807041
71,Thong Soon Green Playground,Singapore Thong Soon Green Playground,1.4000281,103.8184828
72,Springleaf Avenue Playground,Singapore Springleaf Avenue Playground,1.4010566,103.8227109
73,Lentor Walk Playground,Singapore Lentor Walk Playground,1.3887084,103.8381378
74,Mariam Way Playground,Singapore Mariam Way Playground,1.362105,103.966085
75,Mariam Walk Playground,Singapore Mariam Walk Playground,1.3593806,103.9685751
76,Thomson Green Playground,Singapore Thomson Green Playground,1.3786739,103.8324356
77,Surin Avenue Neighbourhood Park,Singapore Surin Avenue Neighbourhood Park,1.3555558,103.88412
78,Mimosa Road Playground,Singapore Mimosa Road Playground,1.3842794,103.8628683
79,Chartwell Drive Park,Singapore Chartwell Drive Park,1.3595943,103.8637466
80,Springside Park,Singapore Springside Park,1.4062614,103.8203499
81,Florissa Park Playground,Singapore Florissa Park Playground,1.3870415,103.8350338
82,Kranji Marshes,Singapore Kranji Marshes,1.4196774,103.7205233
83,Janggus Garden,Singapore Janggus Garden,1.4575779,103.8370648
84,Ann Siang Hill Park,Singapore Ann Siang Hill Park,1.2808201,103.8464323
85,Duxton Plain Park,Singapore Duxton Plain Park,1.2814952,103.8414845
86,Yishun Neighbourhood Park,Singapore Yishun Neighbourhood Park,1.4379231,103.8353384
87,Tanah Puteh Park,Singapore Tanah Puteh Park,1.3158173,103.9313464
88,Jalan Pari Dedap Playground,Singapore Jalan Pari Dedap Playground,1.3331005,103.943712
89,Jalan Limau Kasturi Playground,Singapore Jalan Limau Kasturi Playground,1.3239746,103.9464195
90,Dew Garden,Singapore Dew Garden,1.3993376,103.8710515
91,Sunrise Way Playground,Singapore Sunrise Way Playground,1.3876946,103.8566549
92,Jalan Kelichap Playground,Singapore Jalan Kelichap Playground,1.3468076,103.8818274
93,Interim Park at Terang Bulan Avenue,Singapore Interim Park at Terang Bulan Avenue,1.3216077,103.9214851
94,Sunbird Circle Playground,Singapore Sunbird Circle Playground,1.3390267,103.9582381
95,Jalan Pelatok Playground,Singapore Jalan Pelatok Playground,1.3461305,103.9612868
96,Jalan Limau Kasturi Open Space,Singapore Jalan Limau Kasturi Open Space,1.3243609,103.9462564
97,Changi East Boardwalk,Singapore Changi East Boardwalk,1.3917134,103.9758697
98,Teacher's Estate Playground,Singapore Teacher's Estate Playground,1.3821399,103.8291421
99,Hillview Crescent Playground,Singapore Hillview Crescent Playground,1.3552466,103.7610321
100,Sunset Way Playground,Singapore Sunset Way Playground,1.3262778,103.7662506
101,one-north Park: Fusionopolis North,Singapore one-north Park: Fusionopolis North,1.3008588,103.7903611
102,Taman Mas Merah Playground,Singapore Taman Mas Merah Playground,1.3087284,103.7647552
103,Cashew Link Playground,Singapore Cashew Link Playground,1.3711222,103.7690664
104,Hindhede Nature Park,Singapore Hindhede Nature Park,1.3489085,103.775735
105,Faber Hill Playground,Singapore Faber Hill Playground,1.3195151,103.757965
106,Raffles Place Park,Singapore Raffles Place Park,1.2841836,103.8515103
107,Hong Lim Park - Speakers' Corner,Singapore Hong Lim Park - Speakers' Corner,1.286413,103.845992
108,Mount Batten Rd/Old Airport Rd Open Space,Singapore Mount Batten Rd/Old Airport Rd Open Space,1.308894,103.8860549
109,Wilkinson Interim Park,Singapore Wilkinson Interim Park,1.3017313,103.8869879
110,Central Catchment Nature Reserve,Singapore Central Catchment Nature Reserve,1.3551526,103.7972022
111,Bishan-Ang Mo Kio Park,Singapore Bishan-Ang Mo Kio Park,1.3634088,103.8435614
112,Sembawang Hot Spring Park,Singapore Sembawang Hot Spring Park,1.4342799,103.8227652
113,Jalan Pelatok Open Space,Singapore Jalan Pelatok Open Space,1.3462241,103.9603714
114,Turnhouse Park,Singapore Turnhouse Park,1.3902192,103.9790907
115,Coney Island Park,Singapore Coney Island Park,1.4092951,103.9216496
116,Stratton Walk Playground,Singapore Stratton Walk Playground,1.3793378,103.8669885
117,Leban Park,Singapore Leban Park,1.3727347,103.8289529
118,Kew Drive Playground,Singapore Kew Drive Playground,1.320779,103.9516209
119,Harvey Crescent Playground,Singapore Harvey Crescent Playground,1.3405054,103.9552331
120,Poh Huat Road Playground,Singapore Poh Huat Road Playground,1.3668106,103.8815596
121,Lentor Street Playground,Singapore Lentor Street Playground,1.3901275,103.8343331
122,Lilac Drive Playground,Singapore Lilac Drive Playground,1.3811559,103.8609389
123,Mei Hwan Drive Playground,Singapore Mei Hwan Drive Playground,1.3536037,103.8631326
124,Chuan Green Playground,Singapore Chuan Green Playground,1.3605702,103.866109
125,Begonia Road Playground,Singapore Begonia Road Playground,1.3879755,103.863009
126,Fudu Walk Playground,Singapore Fudu Walk Playground,1.389978,103.8373915
127,Countryside Playground,Singapore Countryside Playground,1.3898386,103.8386917
128,Jalan Pari Burong Playground,Singapore Jalan Pari Burong Playground,1.3339291,103.9469239
129,St. Nicholas View Playground,Singapore St. Nicholas View Playground,1.3716921,103.832811
130,Waringin Park Playground,Singapore Waringin Park Playground,1.3229522,103.9190139
131,Tai Keng Place Playground,Singapore Tai Keng Place Playground,1.3447604,103.8847956
132,Parry Road Playground,Singapore Parry Road Playground,1.3656927,103.8777199
133,Garden View Playground,Singapore Garden View Playground,1.360536,103.8657513
134,Kallang Riverside Park,Singapore Kallang Riverside Park,1.3070353,103.8682849
135,Empress Place,Singapore Empress Place,1.2878665,103.8514787
136,Mount Faber Park,Singapore Mount Faber Park,1.2718742,103.8192125
137,Limau Garden Playground,Singapore Limau Garden Playground,1.3223816,103.9508417
138,Meragi Road Playground,Singapore Meragi Road Playground,1.344351,103.9603722
139,Realty Park Playground,Singapore Realty Park Playground,1.3671309,103.8899313
140,Pasir Ris Town Park,Singapore Pasir Ris Town Park,1.3725402,103.9517213
141,Bedok Ria Crescent Playground,Singapore Bedok Ria Crescent Playground,1.3271638,103.9529113
142,Coronation Park Playground,Singapore Coronation Park Playground,1.3219665,103.7964255
143,Platina Road Playground,Singapore Platina Road Playground,1.4275715,103.8261012
144,Springleaf Nature Park,Singapore Springleaf Nature Park,1.4011332,103.8177885
145,Kranji Reservoir Park,Singapore Kranji Reservoir Park,1.4425483,103.7368885
146,Kandis Garden,Singapore Kandis Garden,1.4561282,103.8359406
147,Punggol Park,Singapore Punggol Park,1.3984457,103.9072046
148,Lower Seletar Reservoir Park,Singapore Lower Seletar Reservoir Park,1.41019,103.8324258
149,Springleaf Garden Playground,Singapore Springleaf Garden Playground,1.3983274,103.8224879
150,Yishun Pond Park,Singapore Yishun Pond Park,1.4279278,103.8399388
151,Jalan Rasok Park,Singapore Jalan Rasok Park,1.416248,103.7589586
152,Goodlink Park Playground,Singapore Goodlink Park Playground,1.4272908,103.8254946
153,Yishun Park,Singapore Yishun Park,1.4250185,103.8447207
154,Lower Peirce Reservoir Park,Singapore Lower Peirce Reservoir Park,1.3720142,103.8257891
155,Punggol Waterway,Singapore Punggol Waterway,1.4056926,103.9120059
156,Kent Ridge Park,Singapore Kent Ridge Park,1.2838852,103.7912945
157,Sisters’ Islands Marine Park,Singapore Sisters’ Islands Marine Park,1.2139132,103.8347519
158,Telok Blangah Hill Park,Singapore Telok Blangah Hill Park,1.2788234,103.8106681
159,HortPark,Singapore HortPark,1.2790995,103.7999436
160,Jalan Naung Playground,Singapore Jalan Naung Playground,1.3695243,103.8928476
161,Chu Yen Playground,Singapore Chu Yen Playground,1.3586124,103.7590024
162,Kampong Java Park,Singapore Kampong Java Park,1.3103452,103.846895
163,Kim Pong Road Open Space,Singapore Kim Pong Road Open Space,1.2849229,103.830134
164,MacRitchie Reservoir Park,Singapore MacRitchie Reservoir Park,1.3447621,103.8223506
165,Singapore Botanic Gardens,Singapore Singapore Botanic Gardens,1.3138397,103.8159136
166,Carpmael Road Open Space,Singapore Carpmael Road Open Space,1.310629,103.8999486
167,Lembu Road Open Space,Singapore Lembu Road Open Space,1.3096509,103.8546197
168,East Coast Park,Singapore East Coast Park,1.3007842,103.9121866
169,Changi West Boardwalk,Singapore Changi West Boardwalk,1.3917134,103.9758697
170,Sungei Buloh Wetland Reserve,Singapore Sungei Buloh Wetland Reserve,1.4479987,103.7245442
171,Windsor Nature Park,Singapore Windsor Nature Park,1.3598099,103.8266715
172,Admiralty Park,Singapore Admiralty Park,1.4436391,103.7830812
173,Woodlands Town Garden,Singapore Woodlands Town Garden,1.4377632,103.7699769
174,Pulau Ubin and Chek Jawa,Singapore Pulau Ubin and Chek Jawa,1.4087305,103.9910305
175,Labrador Nature Reserve,Singapore Labrador Nature Reserve,1.2639961,103.8041124
176,Jurong Lake Gardens,Singapore Jurong Lake Gardens,1.3358997,103.7261741
177,Dairy Farm Nature Park,Singapore Dairy Farm Nature Park,1.3640182,103.7763968
178,Zhenghua Nature Park,Singapore Zhenghua Nature Park,1.3857328,103.7735358
179,Bukit Batok Nature Park,Singapore Bukit Batok Nature Park,1.3473663,103.7612909
180,The Southern Ridges,Singapore The Southern Ridges,1.2790199,103.8094952
181,Tiong Bahru Park,Singapore Tiong Bahru Park,1.2869819,103.8247631
182,Clementi Woods Park,Singapore Clementi Woods Park,1.3016586,103.7667196
183,Jalan Mas Puteh Playground,Singapore Jalan Mas Puteh Playground,1.30872,103.7625377
184,West Coast Park,Singapore West Coast Park,1.2913603,103.7666534
185,one-north Park: Fusionopolis South,Singapore one-north Park: Fusionopolis South,1.2994869,103.7907877
186,Cashew Crescent Fitness Corner Playground,Singapore Cashew Crescent Fitness Corner Playground,1.3722489,103.7693111
187,Fuyong Interim Park,Singapore Fuyong Interim Park,1.3573499,103.7683045
188,Choa Chu Kang Park,Singapore Choa Chu Kang Park,1.3874864,103.7474293
189,Hazel Park Open Space,Singapore Hazel Park Open Space,1.3717018,103.7635892
190,Jalan Mas Kuning Playground,Singapore Jalan Mas Kuning Playground,1.307883,103.7636427
191,Sunset Heights Open Space,Singapore Sunset Heights Open Space,1.3279621,103.7688267
192,Almond Crescent Playground,Singapore Almond Crescent Playground,1.3732265,103.7720711
193,Phoenix Heights Playground,Singapore Phoenix Heights Playground,1.3752275,103.7576174
194,Lakeside Grove Playground,Singapore Lakeside Grove Playground,1.3398909,103.7186279
195,one-north Park: Rochester West,Singapore one-north Park: Rochester West,1.3028391,103.7905769
196,Yunnan Park,Singapore Yunnan Park,1.3374383,103.6929747
197,Bukit Batok Town Park,Singapore Bukit Batok Town Park,1.3566019,103.7535776
198,Jalan Remaja Interim Park,Singapore Jalan Remaja Interim Park,1.3576263,103.7608903
199,Parry Avenue Interim Park,Singapore Parry Avenue Interim Park,1.3639001,103.881112
200,Mei Hwan Crescent Playground,Singapore Mei Hwan Crescent Playground,1.3531696,103.8619308
201,Pebble Garden,Singapore Pebble Garden,1.4505793,103.8294322
202,Kranji Nature Trail,Singapore Kranji Nature Trail,1.4433555,103.7357918
203,Sembawang Park,Singapore Sembawang Park,1.4616659,103.8368876
204,Sengkang Riverside Park,Singapore Sengkang Riverside Park,1.3993143,103.8848743
205,Brooks Park,Singapore Brooks Park,1.4055955,103.8229593
206,Punggol Waterway Park,Singapore Punggol Waterway Park,1.4111377,103.9044621
207,The Foothills Fort Canning Park,Singapore The Foothills Fort Canning Park,1.2921384,103.8457238
208,MacPherson Linear Park,Singapore MacPherson Linear Park,1.3333101,103.8817761
209,Ganges Avenue Open Space,Singapore Ganges Avenue Open Space,1.2907294,103.8317164
210,Chempaka Avenue Playground,Singapore Chempaka Avenue Playground,1.3319038,103.8756679
211,Geylang East Park,Singapore Geylang East Park,1.321602,103.8876703
212,Fort Canning Park,Singapore Fort Canning Park,1.2938682,103.8466283
213,Changi Beach Park,Singapore Changi Beach Park,1.3909433,103.9920554
214,Jalan Chempaka Kuning Playground,Singapore Jalan Chempaka Kuning Playground,1.3296843,103.9499282
215,Saraca Road Playground,Singapore Saraca Road Playground,1.3866409,103.8587317
216,Mimosa Walk Playground,Singapore Mimosa Walk Playground,1.3830147,103.8614364
217,Mera Terrace Playground,Singapore Mera Terrace Playground,1.3473155,103.9634704
218,Jalan Angin Laut Playground,Singapore Jalan Angin Laut Playground,1.3372821,103.9558181
219,Sunrise Drive Playground 2,Singapore Sunrise Drive Playground 2,1.3892938,103.8561411
220,Lentor Road Playground,Singapore Lentor Road Playground,1.3882698,103.8376068
221,Pasir Ris Park,Singapore Pasir Ris Park,1.3725402,103.9517213
222,Loyang View Playground,Singapore Loyang View Playground,1.3635751,103.9665041
223,Jalan Buloh Perindu Playground,Singapore Jalan Buloh Perindu Playground,1.3084586,103.9193968
224,Tanah Merah Playground,Singapore Tanah Merah Playground,1.3289247,103.9469047
225,Luxus Hills Park,Singapore Luxus Hills Park,1.3794987,103.8747709
226,Banyan Villas Playground,Singapore Banyan Villas Playground,1.3874607,103.8386528
227,Taman Kembangan Playground,Singapore Taman Kembangan Playground,1.3250221,103.9144843
228,Jalan Limau Manis Playground,Singapore Jalan Limau Manis Playground,1.3246671,103.9490954
229,Richards Avenue Park,Singapore Richards Avenue Park,1.3609443,103.8822451
230,Lorong Tanggam Park,Singapore Lorong Tanggam Park,1.3988923,103.8736102
231,Bougainvillea Park,Singapore Bougainvillea Park,1.3266982,103.807614
232,Holland Green Playground,Singapore Holland Green Playground,1.3267862,103.7829962
233,North Bridge Garden,Singapore North Bridge Garden,1.3042183,103.8621712
234,Istana Park,Singapore Istana Park,1.2992392,103.8438178
235,Toa Payoh Town Park,Singapore Toa Payoh Town Park,1.3307585,103.8471983
236,Kim Seng Park,Singapore Kim Seng Park,1.292847,103.8347589
237,Mount Sinai Plain Playground,Singapore Mount Sinai Plain Playground,1.3154536,103.7818221
238,Thomson Park,Singapore Thomson Park,1.3543318,103.8343749
239,Holland Grove View Playground,Singapore Holland Grove View Playground,1.3129582,103.7816482
240,Dhoby Ghaut Green,Singapore Dhoby Ghaut Green,1.2983706,103.8460618
241,Mount Emily Park,Singapore Mount Emily Park,1.3046847,103.847584
242,Chiltern Drive Interim Park,Singapore Chiltern Drive Interim Park,1.3485742,103.8620338
243,Kew Crescent Playground,Singapore Kew Crescent Playground,1.3191297,103.9486023
244,Lentor Green Playground,Singapore Lentor Green Playground,1.3852933,103.8369935
245,Nim Crescent Open Space,Singapore Nim Crescent Open Space,1.3833932,103.8669246
246,Colchester Grove Open Space,Singapore Colchester Grove Open Space,1.3574379,103.8674523
247,Tavistock Avenue Park,Singapore Tavistock Avenue Park,1.3705024,103.8651618
248,Elite Terrace Park,Singapore Elite Terrace Park,1.3152863,103.9243959
249,Jalan Selaseh Playground,Singapore Jalan Selaseh Playground,1.3850262,103.872614
250,Jalan Geneng Interim Park,Singapore Jalan Geneng Interim Park,1.3537963,103.8804734
251,Kampong Glam Park,Singapore Kampong Glam Park,1.3024072,103.8630906
252,Clover Way Playground,Singapore Clover Way Playground,1.3501037,103.8460816
253,Marine Parade Road Park,Singapore Marine Parade Road Park,1.305607,103.9092646
254,Butterfly Avenue Playground,Singapore Butterfly Avenue Playground,1.3339342,103.8767922
255,Marymount Terrace Playground,Singapore Marymount Terrace Playground,1.3488919,103.8403749
256,Carmichael Road Playground,Singapore Carmichael Road Playground,1.3426394,103.8630949
257,Greenridge Crescent Playground,Singapore Greenridge Crescent Playground,1.3345268,103.7657938
258,Fulton Avenue Playground,Singapore Fulton Avenue Playground,1.3621131,103.8336268
259,Savoy Park Playground,Singapore Savoy Park Playground,1.3333313,103.7698547
260,Eng Kong Place Fitness Corner,Singapore Eng Kong Place Fitness Corner,1.3347749,103.7673416
261,Pandan Reservoir Fitness Corner,Singapore Pandan Reservoir Fitness Corner,1.3176122,103.7486499
262,Bukit Timah Nature Reserve,Singapore Bukit Timah Nature Reserve,1.3540562,103.7769454
263,one-north Park: Mediapolis,Singapore one-north Park: Mediapolis,1.2949282,103.7927467
264,Lakeside Grove Fitness Corner,Singapore Lakeside Grove Fitness Corner,1.3397692,103.7170867
265,Westwood Park Playground,Singapore Westwood Park Playground,1.3516984,103.7010666
266,Cashew Road Playground,Singapore Cashew Road Playground,1.3709618,103.7645632
267,The Inglewood Playground,Singapore The Inglewood Playground,1.3608959,103.8304901
268,Duchess Park,Singapore Duchess Park,1.3240801,103.8053864
269,Clover Crescent Playground,Singapore Clover Crescent Playground,1.3509477,103.8443412
270,Binchang Rise Playground,Singapore Binchang Rise Playground,1.3487842,103.8435058
271,East Coast Terrace Park,Singapore East Coast Terrace Park,1.3108897,103.9239681
272,Sennett Avenue Playground,Singapore Sennett Avenue Playground,1.3169535,103.9360807
273,Lucky Gardens Playground,Singapore Lucky Gardens Playground,1.3192912,103.9413697
274,Bedok Town Park,Singapore Bedok Town Park,1.3354072,103.9256192
275,Lentor Grove Playground,Singapore Lentor Grove Playground,1.3863116,103.8382781
276,Telok Kurau Lorong N Park,Singapore Telok Kurau Lorong N Park,1.3103021,103.9128024
277,Dedap Place Playground,Singapore Dedap Place Playground,1.3879355,103.8683016
278,Chuan Walk Playground,Singapore Chuan Walk Playground,1.3571188,103.8676223
279,Bedok Reservoir Park,Singapore Bedok Reservoir Park,1.3413025,103.9245499
280,Jalan Riang Playground,Singapore Jalan Riang Playground,1.347237,103.8672856
281,Cheng Soon Garden Playground,Singapore Cheng Soon Garden Playground,1.3358933,103.7716483
282,Jalan Tekukor Playground,Singapore Jalan Tekukor Playground,1.3457618,103.7667541
283,Namly Park,Singapore Namly Park,1.3234287,103.79673
284,Novena Rise Park,Singapore Novena Rise Park,1.3251743,103.8429418
285,Hooper Road Playground,Singapore Hooper Road Playground,1.3126741,103.8431167
286,Chwee Chian Playground,Singapore Chwee Chian Playground,1.2796362,103.7889563
287,Esplanade Park,Singapore Esplanade Park,1.289901,103.8538653
288,Arthur Park,Singapore Arthur Park,1.352083,103.819836
289,one-north Park: Biopolis,Singapore one-north Park: Biopolis,1.3035504,103.7925625
290,Katong Park,Singapore Katong Park,1.2966864,103.8861163
291,Meyer Road Playground,Singapore Meyer Road Playground,1.2987999,103.8942184
292,Thomson Road Playground,Singapore Thomson Road Playground,1.3161521,103.8437644
293,Jacob Ballas Children's Garden,Singapore Jacob Ballas Children's Garden,1.3207604,103.8179241
294,Jupiter Road Playground,Singapore Jupiter Road Playground,1.358189,103.8251746
295,Gentle Drive Playground,Singapore Gentle Drive Playground,1.320396,103.8406736
296,Goldhill Avenue Playground,Singapore Goldhill Avenue Playground,1.3209292,103.8330729
297,Pasir Panjang Park,Singapore Pasir Panjang Park,1.2754957,103.7919387
298,Lorong 40 Geylang Playground,Singapore Lorong 40 Geylang Playground,1.3136757,103.8893596
299,Grove Lane Playground,Singapore Grove Lane Playground,1.3138242,103.7841873
300,Orchard Fountain Corner,Singapore Orchard Fountain Corner,1.3015634,103.8375616
301,Holland Village Park,Singapore Holland Village Park,1.3114819,103.7958064
302,Waterboat House Garden,Singapore Waterboat House Garden,1.2873153,103.8534218
303,Rowell Road Open Space,Singapore Rowell Road Open Space,1.3083867,103.8548969
304,Youth Olympic Park,Singapore Youth Olympic Park,1.2890148,103.860417
305,Greenwood Crescent Playground,Singapore Greenwood Crescent Playground,1.335449,103.8053131
306,Berlayer Creek,Singapore Berlayer Creek,1.26825,103.8043038
307,Novena Park,Singapore Novena Park,1.3243541,103.8298016
308,Golden Rise Playground,Singapore Golden Rise Playground,1.3364179,103.7648482
309,Hoover Park,Singapore Hoover Park,1.343817,103.773143
310,Tanjong Katong Road South Playground,Singapore Tanjong Katong Road South Playground,1.3007009,103.8972522
311,Jalan Kebaya Playground,Singapore Jalan Kebaya Playground,1.3141311,103.7802658
312,Shelford Road Playground,Singapore Shelford Road Playground,1.3285844,103.8105719
313,Malcolm Park,Singapore Malcolm Park,1.3243541,103.8298016
314,Telok Ayer Park,Singapore Telok Ayer Park,1.2780849,103.8467142
315,Aljunied Park,Singapore Aljunied Park,1.3296515,103.8799248
316,Jambol Place Park,Singapore Jambol Place Park,1.2794176,103.7899422
317,Pearl's Hill City Park,Singapore Pearl's Hill City Park,1.2846433,103.8399045
318,Oasis@Mulberry Park,Singapore Oasis@Mulberry Park,1.3320596,103.8785996
319,Haig Walk,Singapore Haig Walk,1.3070411,103.9004653
320,Jalan Pintau Playground,Singapore Jalan Pintau Playground,1.3539838,103.8398907
321,Joo Chiat Terrace Interim Park,Singapore Joo Chiat Terrace Interim Park,1.309867,103.899647
322,Orchid Village Playground,Singapore Orchid Village Playground,1.3355723,103.8018185
323,Clementi Crescent Playground,Singapore Clementi Crescent Playground,1.3236081,103.7731773
324,Pemimpin Place Playground,Singapore Pemimpin Place Playground,1.3534186,103.84273
325,Soo Chow Walk Playground,Singapore Soo Chow Walk Playground,1.3535745,103.8320499
326,Highgate Walk Playground,Singapore Highgate Walk Playground,1.3402984,103.7662116
327,Island Gardens Walk Playground,Singapore Island Gardens Walk Playground,1.3618292,103.8283921
328,Marina Promenade,Singapore Marina Promenade,1.2898549,103.8648113
329,Ang Mo Kio Town Garden East,Singapore Ang Mo Kio Town Garden East,1.3707419,103.85039
330,Holland Grove View Fitness Corner,Singapore Holland Grove View Fitness Corner,1.3128462,103.7826028
331,Sixth Avenue Playground,Singapore Sixth Avenue Playground,1.3224742,103.7912308
332,War Memorial Park,Singapore War Memorial Park,1.2928957,103.8546778
333,Beng Wan Road Playground,Singapore Beng Wan Road Playground,1.3233996,103.8654666
334,Henry Park,Singapore Henry Park,1.3167825,103.7841363
335,River Valley Road / Clemenceau Avenue Open Space,Singapore River Valley Road / Clemenceau Avenue Open Space,1.2931297,103.8436994
336,Ang Mo Kio Town Garden West,Singapore Ang Mo Kio Town Garden West,1.3743688,103.8434332
337,Mayfair Park,Singapore Mayfair Park,1.3414781,103.7808307
338,Guillemard Road Open Space,Singapore Guillemard Road Open Space,1.3145081,103.8924016
339,Thomson Park Estate Interim Park,Singapore Thomson Park Estate Interim Park,1.3565644,103.8340918
340,Bangsawan Park,Singapore Bangsawan Park,1.3211011,103.9237402
341,Eastwood Park Playground,Singapore Eastwood Park Playground,1.3229997,103.9573822
342,Watten Heights Playground,Singapore Watten Heights Playground,1.3317806,103.8082678
343,Taman Permata Park,Singapore Taman Permata Park,1.3495899,103.8346405
344,Hua Guan Crescent Playground,Singapore Hua Guan Crescent Playground,1.3369565,103.7850214
345,Siang Kuang Avenue Interim Park,Singapore Siang Kuang Avenue Interim Park,1.3298312,103.8730618
346,Somme Road Playground,Singapore Somme Road Playground,1.3115353,103.8581267
347,Stamford Green,Singapore Stamford Green,1.2959236,103.8492752
348,King's Drive  Playground,Singapore King's Drive  Playground,1.3191618,103.8058961
349,University Road Park,Singapore University Road Park,1.3255153,103.8174639
350,Greenleaf View Park Playground,Singapore Greenleaf View Park Playground,1.3221649,103.7858587
351,Chestnut Nature Park,Singapore Chestnut Nature Park,1.3712384,103.7795375
