,Lic Name,Blk House,Str Name,Unit No,Postcode,Address,lat,lng
0,LI LI CHENG SUPERMARKET (PUNGGOL) PTE. LTD.,273C,PUNGGOL PLACE,884,823273,Singapore 823273,1.402247,103.901371
1,SHENG SIONG SUPERMARKET PTE LTD,11,UPPER BOON KENG ROAD,901,380011,Singapore 380011,1.314321,103.870795
2,COLD STORAGE SINGAPORE (1983) PTE LTD,683,HOUGANG AVENUE 8,903,530683,Singapore 530683,1.373235,103.886822
3,COLD STORAGE SINGAPORE (1983) PTE LTD,631,BEDOK RESERVOIR ROAD,954,470631,Singapore 470631,1.332953,103.914939
4,YES SUPERMARKET PTE LTD,201B,TAMPINES STREET 21,1091,522201,Singapore 522201,1.353504,103.952866
5,SUZYAMEER FROZEN PTE. LTD.,201D,TAMPINES STREET 21,1161,524201,Singapore 524201,1.352255,103.953629
6,G8 MART PTE. LTD.,421,ANG MO KIO AVENUE 10,1161,560421,Singapore 560421,1.36539,103.852877
7,SHENG SIONG SUPERMARKET PTE LTD,233,ANG MO KIO AVENUE 3,1168,560233,Singapore 560233,1.367618,103.83664
8,PRIME SUPERMARKET (1996) PTE LTD,106,HOUGANG AVENUE 1,1213,530106,Singapore 530106,1.353777,103.890572
9,TAN KWEE ENG,327,YISHUN RING ROAD,1320,760327,Singapore 760327,1.430134,103.84235
10,SHENG SIONG SUPERMARKET PTE LTD,122,ANG MO KIO AVENUE 3,1753,560122,Singapore 560122,1.370211,103.843297
11,KAI SOON SUPERMARKET PTE. LTD.,780,YISHUN RING ROAD,3546,760780,Singapore 760780,1.422176,103.832775
12,COLD STORAGE SINGAPORE (1983) PTE LTD,41,SUNSET WAY,01A,597071,Singapore 597071,1.323497,103.767503
13,THE FISHWIVES PTE. LTD.,501,BUKIT TIMAH ROAD,05B,259760,Singapore 259760,1.322784,103.8145289
14,PRIME SUPERMARKET LIMITED,1,UPPER ALJUNIED LANE,1,360001,Singapore 360001,1.334274,103.878807
15,ABEDIN TRADING PTE. LTD.,599,GEYLANG ROAD,1,389538,Singapore 389538,1.314061,103.886775
16,COLD STORAGE SINGAPORE (1983) PTE LTD,5,STADIUM WALK,1,397693,Singapore 397693,1.3023579,103.876445
17,COLD STORAGE SINGAPORE (1983) PTE LTD,238,THOMSON ROAD,28/29,307683,Singapore 307683,1.319826,103.843998
18,SONG FISH DEALER PTE LTD,17,PETIR ROAD,3,678278,Singapore 678278,1.378191,103.763334
19,THE SEAFOOD MARKET PLACE (BY SONG FISH) PTE. LTD.,676,WOODLANDS DRIVE 71,4,730676,Singapore 730676,1.439759,103.800664
20,SHENG SIONG SUPERMARKET PTE LTD,1,JALAN BERSEH,3/22,209037,Singapore 209037,1.307152,103.857875
21,COLD STORAGE SINGAPORE (1983) PTE LTD,163,TANGLIN ROAD,2022-03-02 00:00:00,247933,Singapore 247933,1.304713,103.823345
22,BLUEWATER SEAFOOD PTE. LTD.,8D,DEMPSEY ROAD,1,249672,Singapore 249672,1.30349,103.809365
23,WONS BUTCHERY PTE. LTD.,1,ST. MARTIN'S DRIVE,1,257988,Singapore 257988,1.305849,103.824644
24,LITTLE FARMS PTE. LTD.,3,LORONG LIPUT,4,277725,Singapore 277725,1.310693,103.795096
25,B & S MINI MART PTE. LTD.,310,GEYLANG ROAD,,389349,Singapore 389349,1.3126389,103.879604
26,"CHEE MIN KUAN, SIMON",342,TANJONG KATONG ROAD,,437112,Singapore 437112,1.303761,103.896489
27,JSJ CORPORATION PTE. LTD.,31A,TANAH MERAH COAST ROAD,1,498720,Singapore 498720,1.352083,103.819836
28,U STARS PTE. LTD.,625,ELIAS ROAD,302,510625,Singapore 510625,1.378441,103.94193
29,LOTTE MART PTE. LTD.,17,LORONG KILAT,2,598139,Singapore 598139,1.340935,103.774176
30,AJMAL TRADING GROUP PTE. LTD.,5,JALAN PAPAN,32,619396,Singapore 619396,1.323243,103.725134
31,MURUGAN TRADERS PTE LTD,9,TRACTOR ROAD,,627970,Singapore 627970,1.324644,103.705538
32,SHENG SIONG SUPERMARKET PTE LTD,440,BUKIT BATOK WEST AVENUE 8,10,650440,Singapore 650440,1.355782,103.739353
33,SHENG SIONG SUPERMARKET PTE LTD,785E,WOODLANDS RISE,1,735785,Singapore 735785,1.446777,103.805519
34,AJMAL TRADING GROUP PTE. LTD.,2,WOODLANDS SECTOR 2,5,737723,Singapore 737723,1.461449,103.809498
35,SHENG SIONG SUPERMARKET PTE LTD,675,YISHUN AVENUE 4,10,760675,Singapore 760675,1.420255,103.843553
36,PHAN NEE TRADING LLP,2B,YISHUN AVENUE 7,1,768929,Singapore 768929,1.444431,103.838931
37,HAO MART PTE. LTD.,658,PUNGGOL EAST,1,820658,Singapore 820658,1.399989,103.919375
38,THE SEAFOOD MARKET PLACE (BY SONG FISH) PTE. LTD.,681,PUNGGOL DRIVE,9,820681,Singapore 820681,1.4025896,103.9128064
39,COLD STORAGE SINGAPORE (1983) PTE LTD,525,ANG MO KIO AVENUE 10,2401,560525,Singapore 560525,1.372623,103.854009
40,PAN PACIFIC INTERNATIONAL HOLDINGS PTE. LTD.,100,TRAS STREET,2022-05-01 00:00:00,79027,Singapore 79027,1.274929,103.843549
41,COLD STORAGE SINGAPORE (1983) PTE LTD,291,JOO CHIAT ROAD,1,427543,Singapore 427543,1.309702,103.902227
42,SHENG SIONG SUPERMARKET PTE LTD,660A,EDGEDALE PLAINS,1,821660,Singapore 821660,1.4026019,103.916544
43,VIVA CORP SERVICES PTE. LTD.,23,KAKI BUKIT ROAD 3,2,415812,Singapore 415812,1.337252,103.90383
44,SWISS BUTCHERY (2013) PRIVATE LIMITED,30,GREENWOOD AVENUE,,289230,Singapore 289230,1.331677,103.806511
45,ROSWELL ENTERPRISE PTE LTD,34,GREENWOOD AVENUE,,289236,Singapore 289236,1.331801,103.806385
46,T S J INDUSTRIAL (S) PTE. LTD.,48,TOH GUAN ROAD EAST,130,608586,Singapore 608586,1.337078,103.7547249
47,COLD STORAGE SINGAPORE (1983) PTE LTD,80,MARINE PARADE ROAD,27/62,449269,Singapore 449269,1.301072,103.905281
48,COLD STORAGE SINGAPORE (1983) PTE LTD,12,KALLANG AVENUE,47,339511,Singapore 339511,1.3097129,103.864287
49,COLD STORAGE SINGAPORE (1983) PTE LTD,11,TANJONG KATONG ROAD,36,437157,Singapore 437157,1.314791,103.894536
50,COLD STORAGE SINGAPORE (1983) PTE LTD,154,WEST COAST ROAD,,127371,Singapore 127371,1.303843,103.766292
51,COLD STORAGE SINGAPORE (1983) PTE LTD,1,VISTA EXCHANGE GREEN,,138617,Singapore 138617,1.306842,103.78844
52,FOODIE MARKET PLACE PTE. LTD.,225,OUTRAM ROAD,,169038,Singapore 169038,1.283373,103.835368
53,MUSTAFA HOLDINGS PTE LTD,147,SYED ALWI ROAD,,207706,Singapore 207706,1.309758,103.855448
54,SUPERNATURE PTE LTD,583,ORCHARD ROAD,,238884,Singapore 238884,1.306339,103.828639
55,HUBER'S PTE. LTD.,22,DEMPSEY ROAD,,249679,Singapore 249679,1.306912,103.810132
56,MEAT THE BUTCHER PTE. LTD.,615,BUKIT TIMAH ROAD,,269716,Singapore 269716,1.324403,103.809437
57,YEO KENG GUAN,5,RIDGEWOOD CLOSE,,276696,Singapore 276696,1.316644,103.7789729
58,COLD STORAGE SINGAPORE (1983) PTE LTD,293,HOLLAND ROAD,,278628,Singapore 278628,1.317728,103.785876
59,COLD STORAGE SINGAPORE (1983) PTE LTD,20,GREENWOOD AVENUE,,289215,Singapore 289215,1.331442,103.806794
60,COLD STORAGE SINGAPORE (1983) PTE LTD,291,YISHUN STREET 22,389/3,760291,Singapore 760291,1.436545,103.8363959
61,CHD @ SOON LEE PTE. LTD.,51,SOON LEE ROAD,51A,628088,Singapore 628088,1.332606,103.6991369
62,SHENG SIONG SUPERMARKET PTE LTD,3,YUAN CHING ROAD,,618642,Singapore 618642,1.3259,103.724955
63,MD SYDUR RAHMAN,13,TUAS SOUTH STREET 5,1,637555,Singapore 637555,1.294938,103.626665
64,7SEVEN PTE. LTD.,51,NORTH COAST AVENUE,3,756992,Singapore 756992,1.456167,103.786623
65,COLD STORAGE SINGAPORE (1983) PTE LTD,1,FUSIONOPOLIS WAY,3,138632,Singapore 138632,1.299622,103.787656
66,SHENG SIONG SUPERMARKET PTE LTD,105,CANBERRA STREET,5,750105,Singapore 750105,1.448908,103.832387
67,U STARS PTE. LTD.,691,WOODLANDS DRIVE 73,6,730691,Singapore 730691,1.44079,103.806082
68,SHENG SIONG SUPERMARKET PTE LTD,338,ANCHORVALE CRESCENT,11,540338,Singapore 540338,1.399146,103.88993
69,SHENG SIONG SUPERMARKET PTE LTD,417,FERNVALE LINK,11,790417,Singapore 790417,1.391635,103.879881
70,BHANDARI INTERNATIONAL PTE. LTD.,280,WOODLANDS INDUSTRIAL PARK E5 (PART OF),47,757322,Singapore 757322,1.4516117,103.7951978
71,SHENG SIONG SUPERMARKET PTE LTD,4,WOODLANDS STREET 12,61,738623,Singapore 738623,1.352083,103.819836
72,WAN SIEW YOONG,4,SAGO LANE,103,50004,Singapore 50004,1.281804,103.842975
73,HAO MART PTE. LTD.,17,JALAN TENTERAM,128,321017,Singapore 321017,1.327121,103.859381
74,MCP FAIRMART PTE LTD,BLK 371,BUKIT BATOK STREET 31,324,650371,Singapore 650371,1.359581,103.750631
75,HAO MART PTE. LTD.,146,JALAN BUKIT MERAH,1074,160146,Singapore 160146,1.277819,103.830741
76,PAN PACIFIC INTERNATIONAL HOLDINGS PTE. LTD.,181,ORCHARD ROAD,2022-03-01 00:00:00,238896,Singapore 238896,1.300934,103.840008
77,COLD STORAGE SINGAPORE (1983) PTE LTD,60,PAYA LEBAR ROAD,2022-05-01 00:00:00,409051,Singapore 409051,1.3195358,103.8922873
78,COLD STORAGE SINGAPORE (1983) PTE LTD,370,ALEXANDRA ROAD,2022-07-03 00:00:00,159953,Singapore 159953,1.288541,103.805249
79,COLD STORAGE SINGAPORE (1983) PTE LTD,930,YISHUN AVENUE 2,2022-07-06 00:00:00,769098,Singapore 769098,1.429848,103.835554
80,COLD STORAGE SINGAPORE (1983) PTE LTD,205,HOUGANG STREET 21,133,530205,Singapore 530205,1.359336,103.885208
81,SHENG SIONG SUPERMARKET PTE LTD,720,CLEMENTI WEST STREET 2,144,120720,Singapore 120720,1.302532,103.7637589
82,PRIME SUPERMARKET LIMITED,803,KING GEORGE'S AVENUE,154,200803,Singapore 200803,1.307798,103.8608749
83,PRIME SUPERMARKET LIMITED,823,TAMPINES STREET 81,160,520823,Singapore 520823,1.3486689,103.934117
84,COLD STORAGE SINGAPORE (1983) PTE LTD,829,TAMPINES STREET 81,284/8,520829,Singapore 520829,1.349192,103.93486
85,COLD STORAGE SINGAPORE (1983) PTE LTD,1,WOODLANDS SQUARE,31/32,738099,Singapore 738099,1.435855,103.786222
86,COLD STORAGE SINGAPORE (1983) PTE LTD,548,WOODLANDS DRIVE 44,37/38,730548,Singapore 730548,1.430554,103.79392
87,LIN POH LING,212,LORONG 8 TOA PAYOH,43/45,310212,Singapore 310212,1.34066,103.854318
88,COLD STORAGE SINGAPORE (1983) PTE LTD,23,SERANGOON CENTRAL,44/45,556083,Singapore 556083,1.350644,103.871806
89,COLD STORAGE SINGAPORE (1983) PTE LTD,230,VICTORIA STREET,16,188024,Singapore 188024,1.299617,103.8552009
90,NAWAS GLOBAL PTE. LTD.,3,TUAS SOUTH STREET 12,16,636947,Singapore 636947,1.27199,103.633386
91,SADIA MINIMART PTE LTD,11,MANDAI ESTATE,16,729908,Singapore 729908,1.4085939,103.759779
92,MEIDI-YA SINGAPORE CO (PTE) LTD,177,RIVER VALLEY ROAD,17,179030,Singapore 179030,1.29178,103.844896
93,IROHA INTERNATIONAL PTE. LTD.,68,ORCHARD ROAD,17,238839,Singapore 238839,1.301016,103.845411
94,COLD STORAGE SINGAPORE (1983) PTE LTD,81,CLEMENCEAU AVENUE,18,239917,Singapore 239917,1.292157,103.842684
95,LITTLE FARMS PTE. LTD.,491,RIVER VALLEY ROAD,20,248371,Singapore 248371,1.293043,103.826933
96,SHENG SIONG SUPERMARKET PTE LTD,61,TEBAN GARDENS ROAD,21,600061,Singapore 600061,1.322074,103.738573
97,PHAN NEE INVESTMENTS (S) PTE LTD,500,OLD CHOA CHU KANG ROAD,21,698924,Singapore 698924,1.3777029,103.71859
98,COLD STORAGE SINGAPORE (1983) PTE LTD,430,UPPER CHANGI ROAD,47,487048,Singapore 487048,1.331678,103.94629
99,RAW MARKET PTE. LTD.,11,PASIR RIS LINK,48,518180,Singapore 518180,1.375603,103.960943
100,THE BUTCHER (SINGAPORE) PTE. LTD.,44,JALAN MERAH SAGA,50,278116,Singapore 278116,1.31197,103.797152
101,HAO MART PTE. LTD.,239,YISHUN RING ROAD,1150,760239,Singapore 760239,1.434031,103.839514
102,SEOUL BUTCHERY PTE. LTD.,13,YUK TONG AVENUE,,596318,Singapore 596318,1.342087,103.774849
103,V SURESH KUMAR,51,ADMIRALTY ROAD WEST - LODGE 1,,757443,Singapore 757443,1.4598279,103.8201
104,COLD STORAGE SINGAPORE (1983) PTE LTD,200,TURF CLUB ROAD,,287994,Singapore 287994,1.337685,103.793667
105,HAO MART PTE. LTD.,448/450,GEYLANG ROAD,,389407,Singapore 389407,1.31334,103.883626
106,COLD STORAGE SINGAPORE (1983) PTE LTD,290,ORCHARD ROAD,14/15,238859,Singapore 238859,1.30451,103.836184
107,COLD STORAGE SINGAPORE (1983) PTE LTD,5,STRAITS VIEW,15/16,18935,Singapore 18935,1.2774589,103.8529889
108,COLD STORAGE SINGAPORE (1983) PTE LTD,68,ORCHARD ROAD,15/16,238839,Singapore 238839,1.301016,103.845411
109,COLD STORAGE SINGAPORE (1983) PTE LTD,1,KIM SENG PROMENADE,18/19,237994,Singapore 237994,1.293984,103.832088
110,POPULAR SUPERMARKET PTE LTD,12,TUAS SOUTH STREET 13,18/19,636937,Singapore 636937,1.2700679,103.6346199
111,SADIA SUPERMARKET & TRADING (S) PTE. LTD.,12,TUAS SOUTH STREET 13,20/21,636937,Singapore 636937,1.2700679,103.6346199
112,COLD STORAGE SINGAPORE (1983) PTE LTD,31,OCEAN WAY,26/27,98375,Singapore 98375,1.2476743,103.8420188
113,COLD STORAGE SINGAPORE (1983) PTE LTD,383,BUKIT TIMAH ROAD,09A,259727,Singapore 259727,1.31975,103.82731
114,COLD STORAGE SINGAPORE (1983) PTE LTD,524A,JELAPANG ROAD,13/18,671524,Singapore 671524,1.384839,103.766361
115,COLD STORAGE SINGAPORE (1983) PTE LTD,512,BISHAN STREET 13,524,570512,Singapore 570512,1.349908,103.849457
116,NTUC FAIRPRICE CO-OPERATIVE LTD,192,LORONG 4 TOA PAYOH,672,310192,Singapore 310192,1.331679,103.850476
117,NTUC FAIRPRICE CO-OPERATIVE LTD,475,TAMPINES STREET 44,145,520475,Singapore 520475,1.360322,103.953147
118,NTUC FAIRPRICE CO-OPERATIVE LTD,107,TAMPINES STREET 11,353/9,521107,Singapore 521107,1.348365,103.948013
119,NTUC FAIRPRICE CO-OPERATIVE LTD,11,RIVERVALE CRESCENT,1,545082,Singapore 545082,1.392002,103.904984
120,NTUC FAIRPRICE CO-OPERATIVE LTD,118,RIVERVALE DRIVE,8,540118,Singapore 540118,1.385427,103.901579
121,NTUC FAIRPRICE CO-OPERATIVE LTD,301,UPPER THOMSON ROAD,25,574408,Singapore 574408,1.354637,103.830935
122,NTUC FAIRPRICE CO-OPERATIVE LTD,500,LORONG 6 TOA PAYOH,,310500,Singapore 310500,1.333005,103.847064
123,NTUC FAIRPRICE CO-OPERATIVE LTD,110,LENGKONG TIGA,233/5,410110,Singapore 410110,1.323791,103.910782
124,NTUC FAIRPRICE CO-OPERATIVE LTD,279,BISHAN STREET 24,62/64,570279,Singapore 570279,1.357491,103.843971
125,NTUC FAIRPRICE CO-OPERATIVE LTD,734,PASIR RIS STREET 72,37,510734,Singapore 510734,1.379861,103.9361799
126,NTUC FAIRPRICE CO-OPERATIVE LTD,2,JOO CHIAT ROAD,1139,420002,Singapore 420002,1.315517,103.899079
127,NTUC FAIRPRICE CO-OPERATIVE LTD,41,JALAN TIGA,5,390041,Singapore 390041,1.307978,103.8846499
128,NTUC FAIRPRICE CO-OPERATIVE LTD,65,AIRPORT BOULEVARD,10,819663,Singapore 819663,1.356716,103.98651
129,NTUC FAIRPRICE CO-OPERATIVE LTD,5,EUNOS CRESCENT,2619,400005,Singapore 400005,1.32128,103.903556
130,NTUC FAIRPRICE CO-OPERATIVE LTD,23,SERANGOON CENTRAL,42,556083,Singapore 556083,1.350644,103.871806
131,NTUC FAIRPRICE CO-OPERATIVE LTD,89,BEDOK NORTH STREET 4,77/79,460089,Singapore 460089,1.333055,103.938284
132,NTUC FAIRPRICE CO-OPERATIVE LTD,612-620,GEYLANG ROAD,,389551,Singapore 389551,1.3142799,103.888392
133,NTUC FAIRPRICE CO-OPERATIVE LTD,5,CHANGI BUSINESS PARK CENTRAL 1,2022-11-08 00:00:00,486038,Singapore 486038,1.3360557,103.9639813
134,NTUC FAIRPRICE CO-OPERATIVE LTD,8,CHANGI BUSINESS PARK AVENUE 1,,486018,Singapore 486018,1.334844,103.963907
135,NTUC FAIRPRICE CO-OPERATIVE LTD,311,NEW UPPER CHANGI ROAD,60,467360,Singapore 467360,1.32488,103.929311
136,NTUC FAIRPRICE CO-OPERATIVE LTD,57,NEW UPPER CHANGI ROAD,1334,461057,Singapore 461057,1.324351,103.941506
137,NTUC FAIRPRICE CO-OPERATIVE LTD,60,AIRPORT BOULEVARD,29,819643,Singapore 819643,1.355322,103.988337
138,NTUC FAIRPRICE CO-OPERATIVE LTD,30,EAST COAST ROAD,2022-09-06 00:00:00,428751,Singapore 428751,1.3037749,103.902914
139,NTUC FAIRPRICE CO-OPERATIVE LTD,6,POTONG PASIR AVENUE 2,1,358361,Singapore 358361,1.332691,103.867251
140,NTUC FAIRPRICE CO-OPERATIVE LTD,1,STADIUM PLACE,29,397628,Singapore 397628,1.303146,103.872865
141,NTUC FAIRPRICE CO-OPERATIVE LTD,3,SIMEI STREET 6,1,528833,Singapore 528833,1.342806,103.952974
142,NTUC FAIRPRICE CO-OPERATIVE LTD,401,MACPHERSON ROAD,22/29,368125,Singapore 368125,1.331732,103.879124
143,NTUC FAIRPRICE CO-OPERATIVE LTD,18,TAI SENG STREET,13,539775,Singapore 539775,1.3366773,103.8888736
144,NTUC FAIRPRICE CO-OPERATIVE LTD,10,EUNOS ROAD 8,101,408600,Singapore 408600,1.319291,103.894819
145,JMD RETAIL PTE. LTD.,330,TANJONG KATONG ROAD,,437106,Singapore 437106,1.304144,103.8964
146,NTUC FAIRPRICE CO-OPERATIVE LTD,108,DEPOT ROAD,1,100108,Singapore 100108,1.2812349,103.8103409
147,COLD STORAGE SINGAPORE (1983) PTE LTD,1,HARBOURFRONT WALK,23,98585,Singapore 98585,1.264613,103.823012
148,NTUC FAIRPRICE CO-OPERATIVE LTD,28,DOVER CRESCENT,83,130028,Singapore 130028,1.304381,103.781952
149,NTUC FAIRPRICE CO-OPERATIVE LTD,140,TECK WHYE LANE,351,680140,Singapore 680140,1.3801298,103.7528627
150,NTUC FAIRPRICE CO-OPERATIVE LTD,63,JURONG WEST CENTRAL 3,,648331,Singapore 648331,1.33942,103.7053619
151,NTUC FAIRPRICE CO-OPERATIVE LTD,21,CHOA CHU KANG NORTH 6,2022-07-01 00:00:00,689578,Singapore 689578,1.39729,103.746546
152,NTUC FAIRPRICE CO-OPERATIVE LTD,61,CHOA CHU KANG DRIVE,1,689715,Singapore 689715,1.397314,103.74739
153,LAMIAH ENTERPRISE PTE. LTD.,5,TECH PARK CRESCENT,2,638127,Singapore 638127,1.311096,103.630234
154,NTUC FAIRPRICE CO-OPERATIVE LTD,3155,COMMONWEALTH AVENUE WEST,,129588,Singapore 129588,1.3150108,103.7643563
155,NTUC FAIRPRICE CO-OPERATIVE LTD,78A,TELOK BLANGAH STREET 32,1,101078,Singapore 101078,1.273512,103.8090239
156,NTUC FAIRPRICE CO-OPERATIVE LTD,460,ALEXANDRA ROAD,,119963,Singapore 119963,1.273673,103.801381
157,NTUC FAIRPRICE CO-OPERATIVE LTD,2,JURONG EAST CENTRAL 1,12,609731,Singapore 609731,1.33352,103.740277
158,NTUC FAIRPRICE CO-OPERATIVE LTD,352,CLEMENTI AVENUE 2,141,120352,Singapore 120352,1.314595,103.77153
159,NTUC FAIRPRICE CO-OPERATIVE LTD,498,JURONG WEST STREET 41,,640498,Singapore 640498,1.348325,103.724256
160,NTUC FAIRPRICE CO-OPERATIVE LTD,502,WEST COAST DRIVE,41,120502,Singapore 120502,1.311718,103.759029
161,NTUC FAIRPRICE CO-OPERATIVE LTD,1,LOWER KENT RIDGE ROAD,16,119082,Singapore 119082,1.29351,103.784193
162,NTUC FAIRPRICE CO-OPERATIVE LTD,280,BUKIT BATOK EAST AVENUE 3,315,650280,Singapore 650280,1.347743,103.757137
163,NTUC FAIRPRICE CO-OPERATIVE LTD,50,JURONG GATEWAY ROAD,21/22,608549,Singapore 608549,1.3330671,103.7436599
164,NTUC FAIRPRICE CO-OPERATIVE LTD,2,BUKIT BATOK WEST AVENUE 7,10,659003,Singapore 659003,1.365784,103.748504
165,SHINVA AGRO FOODS PTE. LTD.,11,TECH PARK CRESCENT,3,638121,Singapore 638121,1.310759,103.631226
166,NTUC FAIRPRICE CO-OPERATIVE LTD,1,JOO KOON CIRCLE,21,629117,Singapore 629117,1.325605,103.6784349
167,SHINVA AGRO FOODS PTE. LTD.,115,TUAS VIEW WALK 1,,637734,Singapore 637734,1.300669,103.627735
168,NTUC FAIRPRICE CO-OPERATIVE LTD,533,CHOA CHU KANG STREET 51,11,680533,Singapore 680533,1.392015,103.743131
169,NTUC FAIRPRICE CO-OPERATIVE LTD,37,TEBAN GARDENS ROAD,,600037,Singapore 600037,1.320589,103.742501
170,PHAN NEE INVESTMENTS (S) PTE LTD,500,OLD CHOA CHU KANG ROAD,2,698928,Singapore 698928,1.371947,103.720855
171,NTUC FAIRPRICE CO-OPERATIVE LTD,249,JURONG EAST STREET 24,106,600249,Singapore 600249,1.342524,103.739203
172,THE QUALITYMART DEPOT PTE. LTD.,180,DEPOT ROAD,4,109684,Singapore 109684,1.28199,103.803049
173,COLD STORAGE SINGAPORE (1983) PTE LTD,35,STUDENTS WALK,,639548,Singapore 639548,1.348251,103.6857969
174,SHENG SIONG SUPERMARKET PTE LTD,451,BUKIT BATOK WEST AVENUE 6,10,650451,Singapore 650451,1.353057,103.744048
175,HONESTBEE PTE. LTD.,34,BOON LEAT TERRACE,,119866,Singapore 119866,1.276012,103.797317
176,NTUC FAIRPRICE CO-OPERATIVE LTD,302,TIONG BAHRU ROAD,1,168732,Singapore 168732,1.286145,103.827342
177,NTUC FAIRPRICE CO-OPERATIVE LTD,166,BUKIT MERAH CENTRAL,3527,150166,Singapore 150166,1.282838,103.817549
178,NTUC FAIRPRICE CO-OPERATIVE LTD,360,BALESTIER ROAD,0,329783,Singapore 329783,1.324989,103.85119
179,NTUC FAIRPRICE CO-OPERATIVE LTD,50,HAVELOCK ROAD,755,160050,Singapore 160050,1.289466,103.827011
180,NTUC FAIRPRICE CO-OPERATIVE LTD,5,TANJONG PAGAR PLAZA,1,81005,Singapore 81005,1.27628,103.8428519
181,NTUC FAIRPRICE CO-OPERATIVE LTD,131,KILLINEY ROAD,"01,02",239571,Singapore 239571,1.297592,103.838707
182,NTUC FAIRPRICE CO-OPERATIVE LTD,1,JELEBU ROAD,15,677743,Singapore 677743,1.379962,103.7641529
183,NTUC FAIRPRICE CO-OPERATIVE LTD,30,SEMBAWANG DRIVE,2022-03-01 00:00:00,757713,Singapore 757713,1.4483845,103.8191873
184,NTUC FAIRPRICE CO-OPERATIVE LTD,71,WOODLANDS AVENUE 3,1,739044,Singapore 739044,1.432563,103.774161
185,NTUC FAIRPRICE CO-OPERATIVE LTD,888,WOODLANDS DRIVE 50,757,730888,Singapore 730888,1.437703,103.79527
186,NTUC FAIRPRICE CO-OPERATIVE LTD,414,YISHUN RING ROAD,1853,760414,Singapore 760414,1.424554,103.846593
187,NTUC FAIRPRICE CO-OPERATIVE LTD,30,WOODLANDS AVENUE 1,,739065,Singapore 739065,1.428724,103.781141
188,NTUC FAIRPRICE CO-OPERATIVE LTD,301,YISHUN AVENUE 2,2,769093,Singapore 769093,1.429394,103.835005
189,NTUC FAIRPRICE CO-OPERATIVE LTD,849,YISHUN RING ROAD,3703,760849,Singapore 760849,1.416781,103.835361
190,NTUC FAIRPRICE CO-OPERATIVE LTD,628,SENJA ROAD,1,670628,Singapore 670628,1.385118,103.760105
191,NTUC FAIRPRICE CO-OPERATIVE LTD,215,ANG MO KIO AVENUE 1,877,560215,Singapore 560215,1.366631,103.841498
192,NTUC FAIRPRICE CO-OPERATIVE LTD,1,ORCHID CLUB ROAD,34,769162,Singapore 769162,1.410939,103.843691
193,NTUC FAIRPRICE CO-OPERATIVE LTD,587,BUKIT TIMAH ROAD,,269707,Singapore 269707,1.323784,103.810236
194,NTUC FAIRPRICE CO-OPERATIVE LTD,451,CLEMENTI AVENUE 3,307,120451,Singapore 120451,1.312638,103.765669
195,NTUC FAIRPRICE CO-OPERATIVE LTD,1,JALAN ANAK BUKIT,1,588996,Singapore 588996,1.339001,103.778958
196,NTUC FAIRPRICE CO-OPERATIVE LTD,135,JURONG EAST STREET 13,337,600135,Singapore 600135,1.333788,103.739684
197,NTUC FAIRPRICE CO-OPERATIVE LTD,1,JURONG WEST CENTRAL 2,9,648886,Singapore 648886,1.339874,103.706464
198,NTUC FAIRPRICE CO-OPERATIVE LTD,63/66,YUNG KUANG ROAD,,610063,Singapore 610063,1.331996,103.722517
199,NTUC FAIRPRICE CO-OPERATIVE LTD,399,YUNG SHENG ROAD,,610399,Singapore 610399,1.3347739,103.721053
200,NTUC FAIRPRICE CO-OPERATIVE LTD,166,BUKIT BATOK WEST AVENUE 8,,650166,Singapore 650166,1.347075,103.742713
201,NTUC FAIRPRICE CO-OPERATIVE LTD,10,BUKIT BATOK CENTRAL,8,659958,Singapore 659958,1.349046,103.7495689
202,NTUC FAIRPRICE CO-OPERATIVE LTD,BLK 345,JURONG EAST STREET 31,29,600345,Singapore 600345,1.345526,103.731146
203,NTUC FAIRPRICE CO-OPERATIVE LTD,57,DAWSON ROAD,1,142057,Singapore 142057,1.292802,103.810934
204,SHENG SIONG SUPERMARKET PTE LTD,19,SERANGOON NORTH AVENUE 5,2022-02-01 00:00:00,554913,Singapore 554913,1.375346,103.871995
205,NTUC FAIRPRICE CO-OPERATIVE LTD,71,KALLANG BAHRU,531,330071,Singapore 330071,1.320553,103.870154
206,NTUC FAIRPRICE CO-OPERATIVE LTD,1,JALAN BUKIT MERAH,4500,150001,Singapore 150001,1.28649,103.8081
207,NTUC FAIRPRICE CO-OPERATIVE LTD,491,RIVER VALLEY ROAD,14,248371,Singapore 248371,1.293043,103.826933
208,NTUC FAIRPRICE CO-OPERATIVE LTD,10,SINARAN DRIVE,47/48,307506,Singapore 307506,1.321061,103.844476
209,NTUC FAIRPRICE CO-OPERATIVE LTD,53,ANG MO KIO AVENUE 3,40,569933,Singapore 569933,1.369017,103.848122
210,NTUC FAIRPRICE CO-OPERATIVE LTD,43,CAMBRIDGE ROAD,15,210043,Singapore 210043,1.315347,103.849427
211,NTUC FAIRPRICE CO-OPERATIVE LTD,5,UPPER BOON KENG ROAD,5,380005,Singapore 380005,1.31265,103.87257
212,NTUC FAIRPRICE CO-OPERATIVE LTD,18 /20,KIM TIAN ROAD,,169252,Singapore 169252,1.284802,103.829353
213,NTUC FAIRPRICE CO-OPERATIVE LTD,80,LORONG LIMAU,191,320080,Singapore 320080,1.323673,103.855541
214,NTUC FAIRPRICE CO-OPERATIVE LTD,180,KITCHENER ROAD,2022-10-09 00:00:00,208539,Singapore 208539,1.311403,103.85662
215,NTUC FAIRPRICE CO-OPERATIVE LTD,150,SILAT AVENUE,44,160150,Singapore 160150,1.277164,103.8313019
216,"JEWISH WELFARE BOARD, SINGAPORE, THE",24,WATERLOO STREET,1,187950,Singapore 187950,1.298111,103.850713
217,NTUC FAIRPRICE CO-OPERATIVE LTD,6,SCOTTS ROAD,,228209,Singapore 228209,1.305811,103.832727
218,NTUC FAIRPRICE CO-OPERATIVE LTD,712,ANG MO KIO AVENUE 6,4056,560712,Singapore 560712,1.371428,103.847103
219,NTUC FAIRPRICE CO-OPERATIVE LTD,100,TRAS STREET,1,79027,Singapore 79027,1.274929,103.843549
220,NTUC FAIRPRICE CO-OPERATIVE LTD,20,AH HOOD ROAD,1,329984,Singapore 329984,1.326891,103.8467
221,NTUC FAIRPRICE CO-OPERATIVE LTD,447A,JALAN KAYU,2,791447,Singapore 791447,1.3922239,103.87261
222,COLD STORAGE SINGAPORE (1983) PTE LTD,3,TEMASEK BOULEVARD,,38983,Singapore 38983,1.294742,103.857414
223,NTUC FAIRPRICE CO-OPERATIVE LTD,808,FRENCH ROAD,1,200808,Singapore 200808,1.308475,103.862009
224,COLD STORAGE SINGAPORE (1983) PTE LTD,16,ENGGOR STREET,,79717,Singapore 79717,1.274261,103.844368
225,NTUC FAIRPRICE CO-OPERATIVE LTD,33,SENGKANG WEST AVENUE,24,797653,Singapore 797653,1.391352,103.876126
226,NTUC FAIRPRICE CO-OPERATIVE LTD,279,SENGKANG EAST AVENUE,6,540279,Singapore 540279,1.38625,103.8929239
227,NTUC FAIRPRICE CO-OPERATIVE LTD,20,LENGKOK BAHRU,13,159053,Singapore 159053,1.287357,103.814804
228,NTUC FAIRPRICE CO-OPERATIVE LTD,574,ANG MO KIO AVENUE 10,1847,560574,Singapore 560574,1.371097,103.856309
229,NTUC FAIRPRICE CO-OPERATIVE LTD,410A,SIN MING AVENUE,2,571410,Singapore 571410,1.362695,103.833251
230,NTUC FAIRPRICE CO-OPERATIVE LTD,30,BENDEMEER ROAD,871,330030,Singapore 330030,1.319344,103.863927
231,NTUC FAIRPRICE CO-OPERATIVE LTD,95,LORONG 4 TOA PAYOH,68,310095,Singapore 310095,1.338873,103.848997
232,SF (313) PTE. LTD.,3,TEMASEK BOULEVARD,616,38983,Singapore 38983,1.294742,103.857414
233,YOUR GROCER PRIVATE LIMITED,34,JALAN BUKIT HO SWEE,870,160034,Singapore 160034,1.288018,103.827144
234,COLD STORAGE SINGAPORE (1983) PTE LTD,8A,MARINA BOULEVARD,44-50,18984,Singapore 18984,1.280475,103.853551
235,PAN PACIFIC INTERNATIONAL HOLDINGS PTE. LTD.,180,KITCHENER ROAD,6,208539,Singapore 208539,1.311403,103.85662
236,NTUC FAIRPRICE CO-OPERATIVE LTD,114,ALJUNIED AVENUE 2,75,380114,Singapore 380114,1.321746,103.886822
237,NTUC FAIRPRICE CO-OPERATIVE LTD,212,BEDOK NORTH STREET 1,147,460212,Singapore 460212,1.325906,103.931513
238,NTUC FAIRPRICE CO-OPERATIVE LTD,152B,SERANGOON NORTH AVENUE 1,384,552152,Singapore 552152,1.369306,103.873048
239,NTUC FAIRPRICE CO-OPERATIVE LTD,6,MARINE PARADE CENTRAL,,449411,Singapore 449411,1.30153,103.906984
240,NTUC FAIRPRICE CO-OPERATIVE LTD,934,EAST COAST ROAD,,459125,Singapore 459125,1.312049,103.924956
241,NTUC FAIRPRICE CO-OPERATIVE LTD,77,CIRCUIT ROAD,464/6,370077,Singapore 370077,1.32849,103.885399
242,NTUC FAIRPRICE CO-OPERATIVE LTD,239/255,EAST COAST ROAD,,428932,Singapore 428932,1.308307,103.907988
243,NTUC FAIRPRICE CO-OPERATIVE LTD,221,BOON LAY PLACE,200,640221,Singapore 640221,1.346517,103.712422
244,NTUC FAIRPRICE CO-OPERATIVE LTD,21,CHOA CHU KANG AVENUE 4,3,689812,Singapore 689812,1.384848,103.745046
245,NTUC FAIRPRICE CO-OPERATIVE LTD,138,TAMPINES STREET 11,136,521138,Singapore 521138,1.345799,103.945616
246,NTUC FAIRPRICE CO-OPERATIVE LTD,168,PUNGGOL FIELD,1,820168,Singapore 820168,1.394214,103.91291
247,NTUC FAIRPRICE CO-OPERATIVE LTD,866A,TAMPINES STREET 83,1,521866,Singapore 521866,1.355507,103.934462
248,NTUC FAIRPRICE CO-OPERATIVE LTD,1,PASIR RIS CLOSE,127,519599,Singapore 519599,1.3789473,103.9552726
249,NTUC FAIRPRICE CO-OPERATIVE LTD,BLK 277C,COMPASSVALE LINK,13,543277,Singapore 543277,1.382377,103.893796
250,COLD STORAGE SINGAPORE (1983) PTE LTD,10,TAMPINES CENTRAL 1,2022-02-01 00:00:00,529536,Singapore 529536,1.354396,103.945206
251,NTUC FAIRPRICE CO-OPERATIVE LTD,100,HOUGANG AVENUE 10,1,538767,Singapore 538767,1.371673,103.894345
252,NTUC FAIRPRICE CO-OPERATIVE LTD,1,MAJU AVENUE,11/14,556679,Singapore 556679,1.3652169,103.865262
253,NTUC FAIRPRICE CO-OPERATIVE LTD,612,PUNGGOL DRIVE,6,820612,Singapore 820612,1.404638,103.908667
254,NTUC FAIRPRICE CO-OPERATIVE LTD,476,UPPER SERANGOON VIEW,18,530476,Singapore 530476,1.377418,103.903718
255,NTUC FAIRPRICE CO-OPERATIVE LTD,51,TAMPINES AVENUE 4,1,528523,Singapore 528523,1.352083,103.819836
256,U STARS SUPERMARKET PTE. LTD.,878C,TAMPINES AVENUE 8,65,523878,Singapore 523878,1.3511979,103.929381
257,NTUC FAIRPRICE CO-OPERATIVE LTD,872C,TAMPINES STREET 86,1,523872,Singapore 523872,1.355067,103.931584
258,NTUC FAIRPRICE CO-OPERATIVE LTD,681,PUNGGOL DRIVE,1,820681,Singapore 820681,1.4025896,103.9128064
259,NTUC FAIRPRICE CO-OPERATIVE LTD,900,SOUTH WOODLANDS DRIVE,1,730900,Singapore 730900,1.435152,103.787195
260,NTUC FAIRPRICE CO-OPERATIVE LTD,511,CANBERRA ROAD,3,750511,Singapore 750511,1.453736,103.819382
261,NTUC FAIRPRICE CO-OPERATIVE LTD,355,SEMBAWANG WAY,1,750355,Singapore 750355,1.449646,103.818602
262,NTUC FAIRPRICE CO-OPERATIVE LTD,36,HOLLAND DRIVE,3,270036,Singapore 270036,1.30946,103.792805
263,SHENG SIONG SUPERMARKET PTE LTD,1,WOODLANDS ROAD,7,677899,Singapore 677899,1.37978,103.760383
264,NTUC FAIRPRICE CO-OPERATIVE LTD,570B,WOODLANDS AVENUE 1,6,732570,Singapore 732570,1.430924,103.790837
265,NTUC FAIRPRICE CO-OPERATIVE LTD,17,PETIR ROAD,67,678278,Singapore 678278,1.378191,103.763334
266,CUTECH GREEN VENTURES PTE. LTD.,10,WOODLANDS INDUSTRIAL PARK E1,,757733,Singapore 757733,1.453468,103.795407
267,NTUC FAIRPRICE CO-OPERATIVE LTD,1,NORTHPOINT DRIVE,103,768019,Singapore 768019,1.428181,103.83615
268,NTUC FAIRPRICE CO-OPERATIVE LTD,676,WOODLANDS DRIVE 71,2,730676,Singapore 730676,1.439759,103.800664
269,NTUC FAIRPRICE CO-OPERATIVE LTD,29A,GHIM MOH LINK,1,271029,Singapore 271029,1.308503,103.784621
270,NTUC FAIRPRICE CO-OPERATIVE LTD,598,YISHUN RING ROAD,1,768698,Singapore 768698,1.352083,103.819836
271,SHENG SIONG SUPERMARKET PTE LTD,573,WOODLANDS DRIVE 16,1,730573,Singapore 730573,1.4311179,103.798508
272,NTUC FAIRPRICE CO-OPERATIVE LTD,510,BISHAN STREET 13,520,570510,Singapore 570510,1.348631,103.849885
273,NTUC FAIRPRICE CO-OPERATIVE LTD,9,BISHAN PLACE,20,579837,Singapore 579837,1.349971,103.848794
274,NTUC FAIRPRICE CO-OPERATIVE LTD,90,HOUGANG AVENUE 10,7,538766,Singapore 538766,1.372629,103.893938
275,NTUC FAIRPRICE CO-OPERATIVE LTD,682,HOUGANG AVENUE 4,310,530682,Singapore 530682,1.3739889,103.885424
276,NTUC FAIRPRICE CO-OPERATIVE LTD,202,HOUGANG STREET 21,0,530202,Singapore 530202,1.357437,103.883638
277,NTUC FAIRPRICE CO-OPERATIVE LTD,1,HOUGANG STREET 91,1,538692,Singapore 538692,1.376022,103.879482
278,NTUC FAIRPRICE CO-OPERATIVE LTD,1,PASIR RIS CENTRAL STREET 3,10,518457,Singapore 518457,1.372567,103.950162
279,NTUC FAIRPRICE CO-OPERATIVE LTD,4,TAMPINES CENTRAL 5,12,529510,Singapore 529510,1.3526609,103.945245
280,NTUC FAIRPRICE CO-OPERATIVE LTD,745,BEDOK RESERVOIR ROAD,3015,470745,Singapore 470745,1.3374569,103.9222659
281,SONG FISH DEALER PTE LTD,750,CHAI CHEE ROAD,9,469000,Singapore 469000,1.323678,103.922137
282,U STARS PTE. LTD.,507,YISHUN AVENUE 4,9,760507,Singapore 760507,1.415221,103.839792
283,SHENG SIONG SUPERMARKET PTE LTD,88,TANGLIN HALT ROAD,10,141088,Singapore 141088,1.302208,103.797717
284,L M MEAT PTE. LTD.,750,CHAI CHEE ROAD,10,469000,Singapore 469000,1.323678,103.922137
285,SHENG SIONG SUPERMARKET PTE LTD,258,PASIR RIS STREET 21,10,510258,Singapore 510258,1.367095,103.964726
286,OH BENG GUAN,395A,BUKIT BATOK WEST AVENUE 5,10,651395,Singapore 651395,1.363934,103.751851
287,IROHA INTERNATIONAL PTE. LTD.,133,NEW BRIDGE ROAD,11,59413,Singapore 59413,1.285202,103.8449399
288,COLD STORAGE SINGAPORE (1983) PTE LTD,316B,ANG MO KIO STREET 31,11,563316,Singapore 563316,1.3648309,103.847772
289,COLD STORAGE SINGAPORE (1983) PTE LTD,1,SELETAR ROAD,11,807011,Singapore 807011,1.387404,103.8694979
290,COLD STORAGE SINGAPORE (1983) PTE LTD,112,EAST COAST ROAD,12,428802,Singapore 428802,1.305511,103.904622
291,CULINA PTE LTD,8,DEMPSEY ROAD,13,247696,Singapore 247696,1.30438,103.809388
292,COLD STORAGE SINGAPORE (1983) PTE LTD,181,LORONG 4 TOA PAYOH,602,310181,Singapore 310181,1.333549,103.851364
293,COLD STORAGE SINGAPORE (1983) PTE LTD,86,REDHILL CLOSE,610,150086,Singapore 150086,1.286943,103.8187
294,SHENG SIONG SUPERMARKET PTE LTD,209,NEW UPPER CHANGI ROAD,631,460209,Singapore 460209,1.324672,103.930879
295,PRIME SUPERMARKET LIMITED,678,WOODLANDS AVENUE 6,716,730678,Singapore 730678,1.439805,103.801588
296,NG TOH TET,442,JURONG WEST AVENUE 1,756,640442,Singapore 640442,1.351513,103.71959
297,HAO MART PTE. LTD.,120,POTONG PASIR AVENUE 1,812,350120,Singapore 350120,1.335157,103.863514
298,CHUA & NG PTE. LTD.,632,BEDOK RESERVOIR ROAD,824,470632,Singapore 470632,1.332034,103.91397
299,LOCH GROCER PTE. LTD.,503,JURONG WEST AVENUE 1,847,640503,Singapore 640503,1.350079,103.717994
300,TANESEI TRADING PTE. LTD.,1,VISTA EXCHANGE GREEN,28,138617,Singapore 138617,1.306842,103.78844
301,ARCHANA SUPERMARKET PTE. LTD.,1,JALAN PAPAN,29,619392,Singapore 619392,1.320584,103.727508
302,COLD STORAGE SINGAPORE (1983) PTE LTD,468B,ADMIRALTY DRIVE,29,752468,Singapore 752468,1.450182,103.81415
303,COLD STORAGE SINGAPORE (1983) PTE LTD,144,UPPER BUKIT TIMAH ROAD,1,588177,Singapore 588177,1.34234,103.776131
304,COLD STORAGE SINGAPORE (1983) PTE LTD,896,DUNEARN ROAD,1,589472,Singapore 589472,1.336502,103.783339
305,ISETAN (SINGAPORE) LIMITED?,3,GATEWAY DRIVE,1,608532,Singapore 608532,1.3345328,103.7427983
306,COLD STORAGE SINGAPORE (1983) PTE LTD,638,JURONG WEST STREET 61,1,640638,Singapore 640638,1.34152,103.696988
307,PRIME SUPERMARKET LIMITED,763,JURONG WEST STREET 75,1,640763,Singapore 640763,1.348424,103.698452
308,SHENG SIONG SUPERMARKET PTE LTD,154A,BUKIT BATOK WEST AVENUE 8,1,651154,Singapore 651154,1.347399,103.743673
309,COLD STORAGE SINGAPORE (1983) PTE LTD,1,BUKIT BATOK CENTRAL LINK,1,658713,Singapore 658713,1.349649,103.749107
310,TANESEI RETAILING PTE. LTD.,2,TAMPINES CENTRAL 5,6,529509,Singapore 529509,1.352738,103.943831
311,LITTLE FARMS PTE. LTD.,7,WALLICH STREET,6,78884,Singapore 78884,1.276966,103.845101
312,MAHOTA FOOD PTE. LTD.,2,TAMPINES CENTRAL 5,7,529509,Singapore 529509,1.352738,103.943831
313,SONG FISH DEALER PTE LTD,2,TAMPINES CENTRAL 5,8,529509,Singapore 529509,1.352738,103.943831
314,SHENG SIONG SUPERMARKET PTE LTD,25,GHIM MOH LINK,11,270025,Singapore 270025,1.3081449,103.786252
315,SHENG SIONG SUPERMARKET PTE LTD,2,ANG MO KIO DRIVE,12,567720,Singapore 567720,1.3777036,103.8554865
316,ISYMI PTE LTD,183,JALAN PELIKAT,12,537643,Singapore 537643,1.355018,103.8880329
317,THE SEAFOOD MARKET PLACE (BY SONG FISH) PTE. LTD.,11,TANJONG KATONG ROAD,15,437157,Singapore 437157,1.314791,103.894536
318,TOH GUAN MINI MART PTE LTD,19,TOH GUAN ROAD EAST,65,608568,Singapore 608568,1.338024,103.75341
319,KADER HASNA MARICAN,17,KIAN TECK LANE,65,627851,Singapore 627851,1.333019,103.695522
320,"TANG KER AN, TIMOTHY",18,BEDOK SOUTH ROAD,67,460018,Singapore 460018,1.320332,103.934572
321,COLD STORAGE SINGAPORE (1983) PTE LTD,256,BANGKIT ROAD,69,670256,Singapore 670256,1.379094,103.772851
322,MM SUNDRY SHOP PTE.LTD.,27,WOODLANDS SECTOR 1,70,738252,Singapore 738252,1.454745,103.80461
323,AL MARCHE PTE LTD,2,MARINA BOULEVARD,5,18987,Singapore 18987,1.280783,103.85265
324,COLD STORAGE SINGAPORE (1983) PTE LTD,1,FIFTH AVENUE,5,268802,Singapore 268802,1.3306849,103.795675
325,COLD STORAGE SINGAPORE (1983) PTE LTD,211,HOLLAND AVENUE,5,278967,Singapore 278967,1.310177,103.7953129
326,THE ALASKA GUYS PTE. LTD.,201,TELOK KURAU ROAD,5,423910,Singapore 423910,1.31197,103.911091
327,COLD STORAGE SINGAPORE (1983) PTE LTD,70,WOODLANDS AVENUE 7,5,738344,Singapore 738344,1.440681,103.800957
328,SONG FISH DEALER PTE LTD,930,YISHUN AVENUE 2,5,769098,Singapore 769098,1.429848,103.835554
329,SHENG SIONG SUPERMARKET PTE LTD,547,SEGAR ROAD,6,670547,Singapore 670547,1.388237,103.769599
330,SHENG SIONG SUPERMARKET PTE LTD,473,FERNVALE STREET,6,790473,Singapore 790473,1.397776,103.881775
331,COLD STORAGE SINGAPORE (1983) PTE LTD,622D,PUNGGOL CENTRAL,6,824622,Singapore 824622,1.399459,103.911705
332,COLD STORAGE SINGAPORE (1983) PTE LTD,26,JALAN MEMBINA,7,161026,Singapore 161026,1.282517,103.825796
333,COLD STORAGE SINGAPORE (1983) PTE LTD,4,HILLVIEW RISE,7,667979,Singapore 667979,1.3627069,103.764172
334,COLD STORAGE SINGAPORE (1983) PTE LTD,845,GEYLANG ROAD,8,400845,Singapore 400845,1.3164419,103.894357
335,TANESEI RETAILING PTE. LTD.,112,EAST COAST ROAD,9,428802,Singapore 428802,1.305511,103.904622
336,SHENG SIONG SUPERMARKET PTE LTD,446,FAJAR ROAD,1,670446,Singapore 670446,1.384083,103.770281
337,COLD STORAGE SINGAPORE (1983) PTE LTD,475,CHOA CHU KANG AVENUE 3,1,680475,Singapore 680475,1.377746,103.73862
338,U STARS PTE. LTD.,810,CHOA CHU KANG AVENUE 7,1,680810,Singapore 680810,1.352083,103.819836
339,FORTUNE SUPERMARKET PTE. LTD.,780,WOODLANDS CRESCENT,1,730780,Singapore 730780,1.448347,103.801094
340,HAO MART PTE. LTD.,505,CANBERRA LINK,1,750505,Singapore 750505,1.450256,103.8229719
341,U STARS SUPERMARKET PTE. LTD.,218,SUMANG WALK,1,820218,Singapore 820218,1.403207,103.89537
342,SHENG SIONG SUPERMARKET PTE LTD,301,PUNGGOL CENTRAL,1,820301,Singapore 820301,1.403302,103.905807
343,ANG MO SUPERMARKET PTE LTD,639,PUNGGOL DRIVE,1,820639,Singapore 820639,1.399345,103.915923
344,COLD STORAGE SINGAPORE (1983) PTE LTD,671,EDGEFIELD PLAINS,1,820671,Singapore 820671,1.4057059,103.9120219
345,SHENG SIONG SUPERMARKET PTE LTD,1,JALAN BERSEH,2,209037,Singapore 209037,1.307152,103.857875
346,SWISS BUTCHERY PTE LTD,56,TANGLIN ROAD,2,247964,Singapore 247964,1.305459,103.822829
347,COLD STORAGE SINGAPORE (1983) PTE LTD,501,BUKIT TIMAH ROAD,2,259760,Singapore 259760,1.322784,103.8145289
348,CP MANAGEMENT SERVICES PRIVATE LIMITED,80,TANAH MERAH COAST ROAD,2,498820,Singapore 498820,1.326768,104.003569
349,VINAYAK TRADERS PTE. LTD.,27,PENJURU WALK,2022-09-08 00:00:00,608538,Singapore 608538,1.319191,103.732868
350,TASTE (SINGAPORE) PRIVATE LIMITED,118,HOLLAND AVENUE,2022-10-01 00:00:00,278997,Singapore 278997,1.310503,103.796177
351,SHENG SIONG SUPERMARKET PTE LTD,18,YISHUN AVENUE 9,2022-10-06 00:00:00,768897,Singapore 768897,1.433095,103.841705
352,PRIME SUPERMARKET (1996) PTE LTD,253,CHOA CHU KANG AVENUE 1,2022-10-07 00:00:00,680253,Singapore 680253,1.377542,103.744413
353,CAVEMEN PTE. LTD.,1,JALAN DUSUN,2022-10-09 00:00:00,329363,Singapore 329363,1.327005,103.843839
354,COLD STORAGE SINGAPORE (1983) PTE LTD,442,ORCHARD ROAD,2022-11-01 00:00:00,238879,Singapore 238879,1.307644,103.82854
355,COLD STORAGE SINGAPORE (1983) PTE LTD,176,ORCHARD ROAD,2022-11-09 00:00:00,238843,Singapore 238843,1.301949,103.839829
356,PRIME SUPERMARKET (1996) PTE LTD,50,NANYANG AVENUE,1/26,639798,Singapore 639798,1.344233,103.680142
357,COLD STORAGE SINGAPORE (1983) PTE LTD,2,FIRST STREET,5/16,458278,Singapore 458278,1.313111,103.923488
358,MOHAMAD DAMAR HULAN BIN OSMAN,212,CHANGI ROAD,,419735,Singapore 419735,1.317109,103.903886
359,THE FOODSPREE PTE LTD,162,JOO CHIAT ROAD,1,427437,Singapore 427437,1.312953,103.8997739
360,HAO MART PTE. LTD.,15,SIGLAP ROAD,1,448912,Singapore 448912,1.3070679,103.923784
361,COLD STORAGE SINGAPORE (1983) PTE LTD,348,BEDOK ROAD,1,469560,Singapore 469560,1.331731,103.948049
362,SHENG SIONG SUPERMARKET PTE LTD,739A,BEDOK RESERVOIR ROAD,1,471739,Singapore 471739,1.337922,103.923333
363,COLD STORAGE SINGAPORE (1983) PTE LTD,440,PASIR RIS DRIVE 4,1,510440,Singapore 510440,1.368929,103.9589419
364,SHENG SIONG SUPERMARKET PTE LTD,527D,PASIR RIS STREET 51,1,514527,Singapore 514527,1.3697462,103.9478212
365,COLD STORAGE SINGAPORE (1983) PTE LTD,982,BUANGKOK CRESCENT,1,530982,Singapore 530982,1.380817,103.87933
366,L M MEAT PTE. LTD.,10,SINARAN DRIVE,55,307506,Singapore 307506,1.321061,103.844476
367,FISHOP PTE. LTD.,370,ALEXANDRA ROAD,58,159953,Singapore 159953,1.288541,103.805249
368,HONG HENG SENG,5,BANDA STREET,92,50005,Singapore 50005,1.281201,103.843403
369,COLD STORAGE SINGAPORE (1983) PTE LTD,2,JURONG EAST STREET 21,100,609601,Singapore 609601,1.334938,103.746872
370,U STARS SUPERMARKET PTE. LTD.,345,CLEMENTI AVENUE 5,78,120345,Singapore 120345,1.317706,103.768766
371,KEK HONG HENG,23,PENJURU WALK,81,608537,Singapore 608537,1.317989,103.731899
372,LIM KING CHEW,6,HOUGANG AVENUE 3,82,530006,Singapore 530006,1.362767,103.893935
373,COLD STORAGE SINGAPORE (1983) PTE LTD,80,MARINE PARADE ROAD,84,449269,Singapore 449269,1.301072,103.905281
374,PRIME SUPERMARKET (1996) PTE LTD,18,BEDOK SOUTH ROAD,87,460018,Singapore 460018,1.320332,103.934572
375,SHENG SIONG SUPERMARKET PTE LTD,18,TECK WHYE LANE,95,680018,Singapore 680018,1.378346,103.754037
376,COLD STORAGE SINGAPORE (1983) PTE LTD,118,ALJUNIED AVENUE 2,100,380118,Singapore 380118,1.320126,103.887252
377,SHENG SIONG SUPERMARKET PTE LTD,4,LORONG 7 TOA PAYOH,107,310004,Singapore 310004,1.339026,103.855302
378,MCP FAIRMART PTE LTD,89,BEDOK NORTH STREET 4,107,460089,Singapore 460089,1.333055,103.938284
379,ONE EIGHT SHOP PTE. LTD.,104,JURONG EAST STREET 13,110,600104,Singapore 600104,1.336586,103.737616
380,COLD STORAGE SINGAPORE (1983) PTE LTD,376,BUKIT BATOK STREET 31,116,650376,Singapore 650376,1.358394,103.749499
381,COLD STORAGE SINGAPORE (1983) PTE LTD,509,BEDOK NORTH STREET 3,121,460509,Singapore 460509,1.3333489,103.931215
382,HAO MART PTE. LTD.,487B,TAMPINES STREET 45,123,521487,Singapore 521487,1.359985,103.958264
383,COLD STORAGE SINGAPORE (1983) PTE LTD,102,YISHUN AVENUE 5,125,760102,Singapore 760102,1.430859,103.8288369
384,COLD STORAGE SINGAPORE (1983) PTE LTD,8,TELOK BLANGAH CRESCENT,171,90008,Singapore 90008,1.2777369,103.819244
385,COLD STORAGE SINGAPORE (1983) PTE LTD,21,GHIM MOH ROAD,177,270021,Singapore 270021,1.310653,103.789243
386,PRIME SUPERMARKET LIMITED,159,BUKIT BATOK STREET 11,178,650159,Singapore 650159,1.348643,103.742681
387,SHENG SIONG SUPERMARKET PTE LTD,845,YISHUN STREET 81,184,760845,Singapore 760845,1.41607,103.834937
388,COLD STORAGE SINGAPORE (1983) PTE LTD,306,UBI AVENUE 1,185,400306,Singapore 400306,1.3294379,103.902291
389,ANG MO SUPERMARKET PTE LTD,642,HOUGANG AVENUE 8,197,530642,Singapore 530642,1.371775,103.879699
390,EN FROZEN PTE LTD,1,GEYLANG SERAI,198,402001,Singapore 402001,1.316716,103.898214
391,LAURELS FOODS SUPPLIERS PTE LTD,2,PANDAN VALLEY,204,597626,Singapore 597626,1.320431,103.778992
392,SHENG SIONG SUPERMARKET PTE LTD,925,YISHUN CENTRAL 1,211,760925,Singapore 760925,1.427567,103.83756
393,SHENG SIONG SUPERMARKET PTE LTD,301,WOODLANDS STREET 31,217,730301,Singapore 730301,1.4316009,103.77371
394,TEO BOBBY,253,SERANGOON CENTRAL DRIVE,241,550253,Singapore 550253,1.353708,103.870912
395,SHAHUL HAMEED S/O ABDUSALAM,280,TAMPINES STREET 22,244,520280,Singapore 520280,1.347603,103.951694
396,COLD STORAGE SINGAPORE (1983) PTE LTD,284,BUKIT BATOK EAST AVENUE 3,251,650284,Singapore 650284,1.346808,103.75726
397,COLD STORAGE SINGAPORE (1983) PTE LTD,266,SERANGOON CENTRAL DRIVE,255,550266,Singapore 550266,1.353432,103.871399
398,COLD STORAGE SINGAPORE (1983) PTE LTD,56,MARINE TERRACE,259,440056,Singapore 440056,1.305628,103.915389
399,SHENG SIONG SUPERMARKET PTE LTD,18B,CIRCUIT ROAD,260,372018,Singapore 372018,1.3293013,103.8884457
400,COLD STORAGE SINGAPORE (1983) PTE LTD,293,YISHUN STREET 22,261,760293,Singapore 760293,1.436379,103.837894
401,PRIME SUPERMARKET (1996) PTE LTD,142,TECK WHYE LANE,281,680142,Singapore 680142,1.380748,103.751988
402,TAN CHUAN BOON,309,HOUGANG AVENUE 5,293,530309,Singapore 530309,1.36622,103.89496
403,SHENG SIONG SUPERMARKET PTE LTD,108,MCNAIR ROAD,295,321108,Singapore 321108,1.321601,103.859577
404,PRIME SUPERMARKET LIMITED,962,JURONG WEST STREET 91,300,640962,Singapore 640962,1.3417269,103.691672
405,MCP FAIRMART PTE LTD,135,JURONG GATEWAY ROAD,317,600135,Singapore 600135,1.333788,103.739684
406,SHENG SIONG SUPERMARKET PTE LTD,115,BEDOK NORTH ROAD,319,460115,Singapore 460115,1.331422,103.93646
407,HAO MART PTE. LTD.,74,WHAMPOA DRIVE,332,320074,Singapore 320074,1.324803,103.857822
408,COLD STORAGE SINGAPORE (1983) PTE LTD,1,COVE AVENUE,,98537,Singapore 98537,1.246928,103.840005
409,COLD STORAGE SINGAPORE (1983) PTE LTD,1,MARITIME SQUARE,,99253,Singapore 99253,1.263884,103.820277
410,L M MEAT PTE. LTD.,154,WEST COAST ROAD,14,127371,Singapore 127371,1.303843,103.766292
411,U STARS PTE. LTD.,817,KEAT HONG LINK,14,680817,Singapore 680817,1.3740405,103.7431152
412,GURU'S MARKETING PTE. LTD.,27,PENJURU WALK,15,608538,Singapore 608538,1.319191,103.732868
413,ISETAN (SINGAPORE) LIMITED?,350,ORCHARD ROAD,0,238868,Singapore 238868,1.305487,103.831573
414,SHENG SIONG SUPERMARKET PTE LTD,420A,CLEMENTI AVENUE 1,1,121420,Singapore 121420,1.309752,103.768627
415,COLD STORAGE SINGAPORE (1983) PTE LTD,101,CLEMENTI ROAD,1,129787,Singapore 129787,1.301799,103.769378
416,SHENG SIONG SUPERMARKET PTE LTD,85,DAWSON ROAD,1,141085,Singapore 141085,1.295379,103.810556
417,COLD STORAGE SINGAPORE (1983) PTE LTD,252,NORTH BRIDGE ROAD,1,179103,Singapore 179103,1.294149,103.852807
418,COLD STORAGE SINGAPORE (1983) PTE LTD,391A,ORCHARD ROAD,1,238873,Singapore 238873,1.302707,103.834289
419,COLD STORAGE SINGAPORE (1983) PTE LTD,260,KIM KEAT AVENUE,1,310260,Singapore 310260,1.3321,103.857435
420,NTUC FAIRPRICE CO-OPERATIVE LTD,170,STIRLING ROAD,1147,140170,Singapore 140170,1.290878,103.802963
421,NTUC FAIRPRICE CO-OPERATIVE LTD,133,NEW BRIDGE ROAD,1,59413,Singapore 59413,1.285202,103.8449399
422,COLD STORAGE SINGAPORE (1983) PTE LTD,101,THOMSON ROAD,52,307591,Singapore 307591,1.317711,103.843491
423,COLD STORAGE SINGAPORE (1983) PTE LTD,21,HOUGANG STREET 51,52,538719,Singapore 538719,1.379502,103.888221
424,TEO BOBBY,29,CHAI CHEE AVENUE,62,460029,Singapore 460029,1.324834,103.924372
425,LOH NYEN YIU,5001,BEACH ROAD,64,199588,Singapore 199588,1.302908,103.864945
426,ARCHANA PROVISION STORES PTE. LTD,27,PENJURU WALK,2022-07-06 00:00:00,608538,Singapore 608538,1.319191,103.732868
427,KINGSMART PTE. LTD.,30,PENJURU PLACE,2022-07-06 00:00:00,608557,Singapore 608557,1.316186,103.732534
428,AP HOUSE PTE. LTD.,12,MARINA VIEW,2022-08-06 00:00:00,18961,Singapore 18961,1.278295,103.850662
429,HAO MART PTE. LTD.,54,BAYSHORE ROAD,2022-08-07 00:00:00,469979,Singapore 469979,1.311778,103.936927
430,COLD STORAGE SINGAPORE (1983) PTE LTD,20,EASTWOOD ROAD,2022-09-07 00:00:00,486442,Singapore 486442,1.321728,103.95578
431,U STARS SUPERMARKET PTE. LTD.,330,ANCHORVALE STREET,1,540330,Singapore 540330,1.396827,103.8891639
432,U STARS SUPERMARKET PTE. LTD.,215C,COMPASSVALE DRIVE,1,543215,Singapore 543215,1.3898391,103.8929155
433,PRIME SUPERMARKET (1996) PTE LTD,542B,SERANGOON NORTH AVENUE 3,1,552542,Singapore 552542,1.37338,103.871295
434,SHENG SIONG SUPERMARKET PTE LTD,200,UPPER THOMSON ROAD,1,574424,Singapore 574424,1.352012,103.835801
435,PHAN NEE INVESTMENTS (S) PTE LTD,2C,YISHUN AVENUE 7,3,768930,Singapore 768930,1.445235,103.838035
436,COLD STORAGE SINGAPORE (1983) PTE LTD,201,YISHUN AVENUE 2,3,769092,Singapore 769092,1.41736,103.832919
437,GW TRADER PTE. LTD.,8,SELETAR NORTH LINK,3,797455,Singapore 797455,1.418672,103.896769
438,PHANG NEE ENTERPRISE PTE. LTD.,2D,JALAN PAPAN,4,619415,Singapore 619415,1.320429,103.730124
439,SHENG SIONG SUPERMARKET PTE LTD,312A,SUMANG LINK,4,821312,Singapore 821312,1.410823,103.90043
440,FOUR SEASONS ORGANIC MARKET PTE. LTD.,80,MARINE PARADE ROAD,83A,449269,Singapore 449269,1.301072,103.905281
441,THE BUTCHER (SINGAPORE) PTE. LTD.,80,MARINE PARADE ROAD,83B,449269,Singapore 449269,1.301072,103.905281
442,SHENG SIONG SUPERMARKET PTE LTD,352,CLEMENTI AVENUE 2,91&99,120352,Singapore 120352,1.314595,103.77153
443,SHENG SIONG SUPERMARKET PTE LTD,544,JURONG WEST STREET 42,97/99,640544,Singapore 640544,1.352264,103.715749
444,THNG SAIK MONG,108,CLEMENTI STREET 11,K1,120108,Singapore 120108,1.322167,103.770304
445,HAO MART PTE. LTD.,222,BISHAN STREET 23,K1,570222,Singapore 570222,1.358071,103.848068
446,COLD STORAGE SINGAPORE (1983) PTE LTD,9,TAMPINES STREET 32,30,529286,Singapore 529286,1.353795,103.960579
447,SHENG SIONG SUPERMARKET PTE LTD,200,WOODLANDS INDUSTRIAL PARK E7,30,757177,Singapore 757177,1.450645,103.796747
448,MAHOTA FOOD PTE. LTD.,809,FRENCH ROAD,31,200809,Singapore 200809,1.308384,103.861858
449,GURU'S MARKETING PTE. LTD.,1,JALAN PAPAN,31,619392,Singapore 619392,1.320584,103.727508
450,VINAYAK TRADERS PTE. LTD.,1,JALAN PAPAN,33,619392,Singapore 619392,1.320584,103.727508
451,COLD STORAGE SINGAPORE (1983) PTE LTD,768,WOODLANDS AVENUE 6,34,730768,Singapore 730768,1.445962,103.798159
452,CHENNAI TRADING & SUPERMART PTE. LTD.,1,JALAN PAPAN,35,619392,Singapore 619392,1.320584,103.727508
453,AJMAL TRADE MART PTE. LTD.,23,MANDAI ESTATE,21,729937,Singapore 729937,1.406673,103.760198
454,L M MEAT PTE. LTD.,5,CHANGI BUSINESS PARK CENTRAL 1,23,486038,Singapore 486038,1.3360557,103.9639813
455,SHENG SIONG SUPERMARKET PTE LTD,27,PENJURU WALK,24,608538,Singapore 608538,1.319191,103.732868
456,SUN TRG & CON PTE LTD,280,WOODLANDS INDUSTRIAL PARK E5,24,757322,Singapore 757322,1.4516117,103.7951978
457,SHENG SIONG SUPERMARKET PTE LTD,52,CHIN SWEE ROAD,25,160052,Singapore 160052,1.287115,103.841413
458,COLD STORAGE SINGAPORE (1983) PTE LTD,1,SENGKANG SQUARE,25,545078,Singapore 545078,1.392272,103.894775
459,COLD STORAGE SINGAPORE (1983) PTE LTD,604,SEMBAWANG ROAD,25,758459,Singapore 758459,1.441872,103.824824
460,SONG FISH DEALER PTE LTD,133,NEW BRIDGE ROAD,26,59413,Singapore 59413,1.285202,103.8449399
461,SONG FISH DEALER PTE LTD,1,JURONG WEST CENTRAL 2,26,648886,Singapore 648886,1.339874,103.706464
462,COLD STORAGE SINGAPORE (1983) PTE LTD,259,PASIR RIS STREET 21,27,510259,Singapore 510259,1.366385,103.964571
463,NG CHAI SENG,109,BUKIT PURMEI ROAD,155,90109,Singapore 90109,1.273916,103.825288
464,PRIME SUPERMARKET LIMITED,373,BUKIT BATOK STREET 31,248,650373,Singapore 650373,1.358959,103.750278
465,ANG KEN CHUA,410,CHOA CHU KANG AVENUE 3,341,680410,Singapore 680410,1.380647,103.741533
466,HAO MART PTE. LTD.,537,BEDOK NORTH STREET 3,555,460537,Singapore 460537,1.331769,103.9242529
467,COLD STORAGE SINGAPORE (1983) PTE LTD,21,TAMPINES NORTH DRIVE 2,,528765,Singapore 528765,1.372484,103.932199
468,SARATHI STORES PTE LTD,91,UPPER PAYA LEBAR ROAD,,534821,Singapore 534821,1.337487,103.886983
469,SIVAMANI MINIMART PTE LTD,141,UPPER PAYA LEBAR ROAD,,534846,Singapore 534846,1.338872,103.886124
470,HAO MART PTE. LTD.,16,JALAN KURAS,,577729,Singapore 577729,1.373092,103.829542
471,ALTERNATIVE SELECTION PTE. LTD.,29,BINJAI PARK,,589831,Singapore 589831,1.33656,103.787228
472,TUAS SOUTH MINIMART PTE. LTD.,6,TUAS SOUTH STREET 15,,636906,Singapore 636906,1.27069,103.636208
473,NPS IMPEX PTE. LTD,21,TUAS VIEW SQUARE,,637640,Singapore 637640,1.298749,103.627525
474,COLD STORAGE SINGAPORE (1983) PTE LTD,492,JURONG WEST STREET 41,,640492,Singapore 640492,1.350203,103.724268
475,SHENG SIONG SUPERMARKET PTE LTD,7,JURONG WEST AVENUE 5,,649486,Singapore 649486,1.348808,103.703404
476,COLD STORAGE SINGAPORE (1983) PTE LTD,464,UPPER BUKIT TIMAH ROAD,,678077,Singapore 678077,1.360088,103.767431
477,GOWRI'S GLOBAL MARKETING PTE. LTD.,460,MANDAI ROAD,,729760,Singapore 729760,1.410533,103.7685939
478,BALASUBRAMANIYAN KANNADASAN,257,KRANJI ROAD,,739503,Singapore 739503,1.435974,103.75398
479,AJMAL TRADE MART PTE. LTD.,12,KRANJI ROAD,,739522,Singapore 739522,1.431895,103.759773
480,DE ESPERTO MINIMART PTE. LTD.,190,WOODLANDS INDUSTRIAL PARK E7,,757178,Singapore 757178,1.451132,103.797847
481,PHAN NEE TRADING LLP,49,ADMIRALTY ROAD WEST,,757444,Singapore 757444,1.461269,103.818398
482,BANGLADESH SUPER MARKET PTE. LTD.,1024,SEMBAWANG ROAD,,758498,Singapore 758498,1.4534609,103.832519
483,LABIBA ENTERPRISE PTE. LTD.,249,JALAN KAYU,,799473,Singapore 799473,1.396636,103.872952
484,COLD STORAGE SINGAPORE (1983) PTE LTD,266,COMPASSVALE BOW,2,540266,Singapore 540266,1.38191,103.8970609
485,SHAFEN SUPERMARKET & TRADING (S) PTE. LTD.,18,TOH GUAN ROAD EAST,2,608596,Singapore 608596,1.336506,103.751747
486,YS LOGISTICS (S) PTE. LTD.,15,JALAN TEPONG,2,619336,Singapore 619336,1.308133,103.722354
487,MALAR MARKETING PTE. LTD.,69,TUAS SOUTH AVENUE 1,2,637589,Singapore 637589,1.313352,103.627425
488,SADIA SUPERMARKET & TRADING (S) PTE. LTD.,14,TECH PARK CRESCENT,2,638118,Singapore 638118,1.311048,103.630355
489,GOWRI'S GLOBAL MARKETING PTE. LTD.,555,UPPER JURONG ROAD,2,638368,Singapore 638368,1.3289169,103.677151
490,KAVI TRADERS PTE. LTD.,69R,TUAS SOUTH AVENUE 1,2,639926,Singapore 639926,1.313313,103.627669
491,BISMILLAH MINIMART PTE. LTD.,32,MANDAI ESTATE,2,729939,Singapore 729939,1.407516,103.758044
492,FORTUNE SUPERMARKET PTE. LTD.,463,SEMBAWANG DRIVE,2,750463,Singapore 750463,1.455533,103.814504
493,COLD STORAGE SINGAPORE (1983) PTE LTD,406A,SEMBAWANG DRIVE,2,751406,Singapore 751406,1.4523759,103.817468
494,PRIME SUPERMARKET LIMITED,108,PUNGGOL FIELD,2,820108,Singapore 820108,1.396578,103.908996
495,U STARS SUPERMARKET PTE. LTD.,261,PUNGGOL WAY,2,820261,Singapore 820261,1.405502,103.896832
496,COLD STORAGE SINGAPORE (1983) PTE LTD,445,FAJAR ROAD,536,670445,Singapore 670445,1.383802,103.770558
497,HAO MART PTE. LTD.,205,PETIR ROAD,595,670205,Singapore 670205,1.373446,103.773873
498,PRIME SUPERMARKET (1996) PTE LTD,761,YISHUN STREET 72,348,760761,Singapore 760761,1.425443,103.833179
499,SHENG SIONG SUPERMARKET PTE LTD,506,TAMPINES CENTRAL 1,361,520506,Singapore 520506,1.355917,103.945907
500,COLD STORAGE SINGAPORE (1983) PTE LTD,776,PASIR RIS STREET 71,412,510776,Singapore 510776,1.37493,103.93682
501,COLD STORAGE SINGAPORE (1983) PTE LTD,418,YISHUN AVENUE 11,433,760418,Singapore 760418,1.424749,103.847187
502,PRIME SUPERMARKET LIMITED,25A,CHAI CHEE ROAD,459,461025,Singapore 461025,1.323408,103.924153
503,SHENG SIONG SUPERMARKET PTE LTD,539A,BEDOK NORTH STREET 3,477,461539,Singapore 461539,1.332698,103.925662
504,HAO MART PTE. LTD.,69,BEDOK SOUTH AVENUE 3,484,460069,Singapore 460069,1.319371,103.943589
505,PRIME SUPERMARKET (1996) PTE LTD,159A,HOUGANG STREET 11,1,531159,Singapore 531159,1.351901,103.879536
506,PRIME SUPERMARKET LIMITED,263,COMPASSVALE STREET,1,540263,Singapore 540263,1.39484,103.895953
507,COLD STORAGE SINGAPORE (1983) PTE LTD,883,WOODLANDS STREET 82,498,730883,Singapore 730883,1.442756,103.790708
508,COLD STORAGE SINGAPORE (1983) PTE LTD,161,ANG MO KIO AVENUE 4,504,560161,Singapore 560161,1.374125,103.839812
509,COLD STORAGE SINGAPORE (1983) PTE LTD,2,JALAN LOKAM,37,537846,Singapore 537846,1.345366,103.882526
510,D-RON INVESTMENTS PTE. LTD.,2,SELETAR NORTH LINK,38,797601,Singapore 797601,1.4165084,103.8953191
511,AJMAL SUPER MART PTE. LTD.,70,TUAS SOUTH AVENUE 1,40,637285,Singapore 637285,1.314024,103.625766
512,COLD STORAGE SINGAPORE (1983) PTE LTD,1,CLAYMORE DRIVE,41,229594,Singapore 229594,1.307565,103.829476
513,SONG FISH DEALER PTE LTD,50,JURONG GATEWAY ROAD,43,608549,Singapore 608549,1.3330671,103.7436599
514,COLD STORAGE SINGAPORE (1983) PTE LTD,36A,DUNEARN ROAD,44,309426,Singapore 309426,1.316165,103.837834
515,COLD STORAGE SINGAPORE (1983) PTE LTD,2,BAYFRONT AVENUE,46,18972,Singapore 18972,1.2827059,103.858842
516,NG LIAN TEE,7,GREENDALE AVENUE,,289504,Singapore 289504,1.331816,103.807074
517,TAN PAK NANG,387,UPPER ALJUNIED ROAD,,367872,Singapore 367872,1.333028,103.878608
518,HAO MART PTE. LTD.,32,LORONG 11 GEYLANG,,388724,Singapore 388724,1.313466,103.87681
519,PRB TRADING PTE. LTD.,230,GEYLANG ROAD,,389290,Singapore 389290,1.3122609,103.877286
520,SHENG SIONG SUPERMARKET PTE LTD,301,GEYLANG ROAD,,389344,Singapore 389344,1.312545,103.878641
521,I-TEC SUPERMART PTE LTD,498/500,GEYLANG ROAD,,389456,Singapore 389456,1.313652,103.885185
522,YEO HOCK HENG,5,ALJUNIED ROAD,,389797,Singapore 389797,1.313482,103.882012
523,AZ SUPERMART PTE. LTD.,21,KAKI BUKIT AVENUE 3,,415920,Singapore 415920,1.338125,103.909958
524,FOODIE MARKET PLACE PTE. LTD.,313,TANJONG KATONG ROAD,,437096,Singapore 437096,1.306021,103.895979
525,ZAC MEAT & POULTRY PTE LTD,1B,FIGARO STREET,,458322,Singapore 458322,1.315647,103.925867
